{"type":"FeatureCollection","features":[{"type":"Feature","properties":{"name":"Lake Ladoga","source":"Natural Earth 1:50m","ne_id":1159113095},"geometry":{"type":"Polygon","coordinates":[[[29.836719,61.226074],[29.836719,61.226074],[29.836719,61.226074],[29.836719,61.226074],[29.860156,61.239307],[29.864551,61.250977],[29.855078,61.27124],[29.891309,61.294971],[29.949414,61.289404],[30.029102,61.254492],[30.079297,61.242627],[30.094141,61.258545],[30.089453,61.270557],[30.090039,61.299268],[30.12998,61.312598],[30.173926,61.314062],[30.192969,61.327246],[30.195996,61.347803],[30.182617,61.361084],[30.179297,61.372656],[30.200879,61.388965],[30.209961,61.417969],[30.216895,61.431348],[30.237305,61.446338],[30.252051,61.458643],[30.251563,61.472656],[30.234863,61.492627],[30.23877,61.514844],[30.285156,61.516602],[30.466211,61.487158],[30.480664,61.490039],[30.486328,61.514941],[30.512695,61.525195],[30.550781,61.535449],[30.605859,61.541309],[30.616699,61.560303],[30.593359,61.579492],[30.594336,61.605811],[30.75752,61.733447],[30.851953,61.775049],[30.888184,61.764795],[30.895898,61.754443],[30.905664,61.742236],[31.025879,61.714355],[31.056738,61.689209],[31.071094,61.645117],[31.098438,61.620361],[31.160645,61.618701],[31.172266,61.629785],[31.238184,61.643018],[31.25752,61.641064],[31.285938,61.615234],[31.308105,61.605029],[31.327832,61.61665],[31.334082,61.627441],[31.364844,61.627441],[31.486133,61.55083],[31.533203,61.497363],[31.575781,61.437207],[31.603613,61.422559],[31.619727,61.426953],[31.616504,61.44248],[31.62041,61.461084],[31.636914,61.462744],[31.697852,61.415479],[31.762305,61.383691],[31.870703,61.347363],[31.898633,61.323975],[32.35957,61.180518],[32.526855,61.117529],[32.563379,61.079443],[32.58125,61.044873],[32.580566,61.013867],[32.592578,60.997607],[32.633398,60.986719],[32.640723,60.969141],[32.76543,60.886035],[32.807813,60.826367],[32.811914,60.756494],[32.843555,60.712207],[32.903027,60.693506],[32.936523,60.670312],[32.944336,60.642578],[32.906934,60.585938],[32.841406,60.497021],[32.815723,60.481885],[32.781836,60.488232],[32.72207,60.521143],[32.641699,60.536865],[32.599902,60.533496],[32.596484,60.511084],[32.617871,60.475586],[32.663965,60.4271],[32.67666,60.392432],[32.655859,60.37168],[32.594922,60.35459],[32.590234,60.330225],[32.614355,60.285791],[32.612305,60.245361],[32.583887,60.208936],[32.500391,60.176514],[32.361523,60.148096],[32.260156,60.154346],[32.196094,60.195361],[32.057129,60.226514],[31.843262,60.247852],[31.699414,60.235645],[31.598926,60.169629],[31.590625,60.155566],[31.596875,60.143799],[31.605859,60.142285],[31.606445,60.133643],[31.548242,60.071875],[31.540918,60.034521],[31.565039,59.998047],[31.567188,59.966553],[31.547168,59.940137],[31.509766,59.920361],[31.454785,59.907178],[31.401367,59.911328],[31.349316,59.932764],[31.274414,59.937646],[31.176367,59.925781],[31.10625,59.927686],[31.063965,59.943213],[31.042773,59.950977],[31.063184,59.962891],[31.145313,60.005518],[31.142871,60.031689],[31.105957,60.056299],[31.095117,60.08374],[31.114941,60.134863],[31.108984,60.146436],[31.018945,60.19292],[30.956836,60.263623],[30.849121,60.442627],[30.832129,60.45752],[30.816895,60.458838],[30.80332,60.446631],[30.775977,60.448096],[30.774219,60.49209],[30.758594,60.524512],[30.72373,60.561768],[30.663281,60.592822],[30.533887,60.630078],[30.523926,60.65459],[30.504004,60.703564],[30.504492,60.731641],[30.525391,60.738867],[30.533203,60.765527],[30.52793,60.811719],[30.502051,60.843213],[30.455859,60.86001],[30.441211,60.873633],[30.43584,60.902686],[30.408691,60.928027],[30.292676,61.005127],[30.124902,61.087354],[29.857227,61.187988],[29.825,61.215576],[29.836719,61.226074]]]}},{"type":"Feature","properties":{"name":"Lake Baikal","source":"Natural Earth 1:50m","ne_id":1159113127},"geometry":{"type":"Polygon","coordinates":[[[109.863867,55.538965],[109.863867,55.538965],[109.863867,55.538965],[109.857227,55.445557],[109.824609,55.401904],[109.790527,55.329736],[109.78125,55.279688],[109.75,55.1854],[109.743945,55.139551],[109.768164,55.082764],[109.764844,55.039648],[109.71582,54.931641],[109.702246,54.901758],[109.683594,54.849951],[109.645605,54.807178],[109.632617,54.771777],[109.607031,54.676074],[109.544141,54.629102],[109.523438,54.558594],[109.489746,54.380371],[109.495703,54.262109],[109.553711,54.174023],[109.555859,54.15376],[109.537891,54.116211],[109.500098,54.061426],[109.425977,53.997803],[109.24375,53.868604],[109.210547,53.827686],[109.198242,53.792627],[109.204395,53.736963],[109.203809,53.678516],[109.199414,53.659961],[109.177637,53.637598],[109.030371,53.638965],[109.008887,53.667773],[109.034277,53.759766],[109.060547,53.804443],[109.060742,53.830957],[109.033008,53.858301],[108.994141,53.86875],[108.94375,53.862402],[108.891016,53.841895],[108.835938,53.807275],[108.618555,53.582422],[108.532129,53.513379],[108.544629,53.507568],[108.645703,53.54834],[108.732227,53.570801],[108.841895,53.586523],[108.920605,53.565576],[108.968457,53.507764],[108.989062,53.450342],[108.982324,53.393311],[108.931055,53.344385],[108.767676,53.281299],[108.728711,53.277979],[108.702734,53.283496],[108.676172,53.303906],[108.66123,53.30166],[108.391992,53.163281],[108.302246,53.109424],[108.297266,53.093262],[108.329883,53.056152],[108.334766,53.0375],[108.287793,52.989014],[108.233984,52.945703],[108.007031,52.837012],[107.947656,52.780322],[107.763086,52.713867],[107.674414,52.701367],[107.578516,52.701172],[107.386621,52.647949],[107.098828,52.54165],[106.938184,52.474561],[106.90459,52.446582],[106.843066,52.356348],[106.806055,52.328516],[106.751953,52.316504],[106.692969,52.337744],[106.599121,52.370508],[106.497266,52.383105],[106.390234,52.354541],[106.313867,52.323145],[106.269141,52.282031],[106.258008,52.230664],[106.280664,52.169141],[106.260645,52.102979],[106.186523,51.956445],[106.133789,51.915918],[106.065137,51.862695],[105.967383,51.774219],[105.797656,51.701074],[105.435059,51.614453],[105.064844,51.557227],[104.90293,51.522021],[104.826172,51.489795],[104.655176,51.482324],[104.390039,51.499707],[104.156445,51.535449],[103.817383,51.634033],[103.744922,51.668604],[103.713379,51.694238],[103.722656,51.710938],[103.743164,51.722412],[103.790723,51.731738],[104.13252,51.769482],[104.343164,51.782764],[104.536523,51.784082],[104.6625,51.806104],[104.720996,51.848828],[104.812012,51.870215],[104.866895,51.870215],[104.935449,51.870215],[105.053223,51.882129],[105.165137,51.905908],[105.242676,51.938184],[105.285742,51.97876],[105.344531,52.009424],[105.418848,52.030176],[105.569629,52.10835],[105.691602,52.216211],[105.859766,52.386719],[106.059961,52.511914],[106.29248,52.591895],[106.451563,52.656494],[106.537402,52.705859],[106.578516,52.741699],[106.70166,52.831982],[106.757422,52.869287],[106.783301,52.906006],[106.880957,52.973096],[106.897266,53.002686],[106.873242,53.029395],[106.773633,53.022266],[106.780371,53.04458],[106.851953,53.10293],[107.071875,53.24126],[107.232031,53.31626],[107.534668,53.438965],[107.547168,53.452588],[107.550977,53.5021],[107.575781,53.5479],[107.626953,53.611035],[107.789258,53.711475],[108.062402,53.849219],[108.223535,53.976123],[108.275391,54.036426],[108.297656,54.07832],[108.361816,54.173096],[108.408105,54.209863],[108.472852,54.276758],[108.518945,54.349756],[108.546387,54.428857],[108.592773,54.49248],[108.722559,54.600537],[108.785742,54.672314],[108.827148,54.738672],[108.846875,54.799609],[108.882031,54.852637],[108.93252,54.897754],[108.944141,54.930566],[108.916895,54.951025],[108.953125,54.98335],[109.052734,55.027588],[109.110156,55.09917],[109.171094,55.193701],[109.197656,55.261426],[109.213281,55.405371],[109.190625,55.463721],[109.193457,55.535596],[109.238672,55.574658],[109.313477,55.60791],[109.507031,55.730908],[109.575586,55.771484],[109.667188,55.778564],[109.760352,55.773535],[109.846973,55.754639],[109.955371,55.672217],[109.860742,55.574805],[109.863867,55.538965]],[[107.766797,53.267041],[107.766797,53.267041],[107.766797,53.267041],[107.795313,53.392969],[107.744434,53.399072],[107.584082,53.283301],[107.352539,53.210205],[107.090527,53.133008],[106.99502,53.106592],[106.960449,53.078174],[106.9625,53.02334],[107.313867,53.067969],[107.437793,53.102539],[107.638867,53.220361],[107.766797,53.267041]]]}},{"type":"Feature","properties":{"name":"V\u00e4nern","source":"Natural Earth 1:50m","ne_id":1159113235},"geometry":{"type":"Polygon","coordinates":[[[14.038379,59.082666],[14.038379,59.082666],[14.038379,59.082666],[14.038379,59.082666],[14.038379,59.082666],[14.06582,59.097217],[14.083008,59.099902],[14.089453,59.091553],[14.09082,59.079395],[14.083008,59.064258],[14.07168,59.028271],[14.05625,59.016895],[14.049902,59.012207],[14.038672,59.004395],[14.012109,59.003662],[13.992578,58.986426],[13.995215,58.944824],[13.987207,58.898145],[13.975195,58.86543],[13.954102,58.843652],[13.924121,58.823389],[13.890137,58.800488],[13.859277,58.772168],[13.829883,58.744336],[13.799512,58.722412],[13.737305,58.703857],[13.631055,58.684131],[13.517285,58.663281],[13.436621,58.641992],[13.358105,58.61709],[13.300293,58.561426],[13.240234,58.514844],[13.194629,58.510986],[13.172168,58.511865],[13.147559,58.521436],[13.136523,58.541309],[13.149414,58.558545],[13.148926,58.573389],[13.148242,58.597168],[13.115137,58.608252],[13.040625,58.604297],[12.952148,58.571631],[12.912793,58.545752],[12.868652,58.503809],[12.79834,58.485693],[12.727539,58.4521],[12.679199,58.420508],[12.649707,58.396875],[12.624316,58.382324],[12.601953,58.375977],[12.57959,58.372119],[12.561914,58.373193],[12.550586,58.378857],[12.554297,58.394385],[12.572656,58.419189],[12.571094,58.432178],[12.554297,58.429834],[12.507031,58.396924],[12.375,58.382861],[12.334668,58.373779],[12.313281,58.395313],[12.329297,58.433936],[12.487695,58.513232],[12.606934,58.61709],[12.611328,58.641309],[12.562793,58.650195],[12.525195,58.66123],[12.503711,58.69458],[12.500879,58.727539],[12.499707,58.764453],[12.471289,58.782764],[12.447559,58.782764],[12.425488,58.801465],[12.432129,58.8125],[12.458984,58.817432],[12.473828,58.839697],[12.471777,58.876904],[12.463965,58.920703],[12.468555,58.934863],[12.481934,58.930615],[12.497266,58.92002],[12.510254,58.901221],[12.519922,58.867383],[12.526367,58.845605],[12.535254,58.83208],[12.557129,58.818945],[12.575781,58.825732],[12.599707,58.845605],[12.618359,58.886914],[12.646875,58.931494],[12.675781,58.98667],[12.708398,59.035547],[12.745898,59.064844],[12.784082,59.076221],[12.818359,59.081982],[12.868555,59.072656],[12.945312,59.047656],[13.040625,59.014258],[13.061719,58.977344],[13.088086,58.946631],[13.12207,58.92085],[13.159766,58.905078],[13.195117,58.898584],[13.235742,58.905078],[13.243555,58.930469],[13.221094,58.992676],[13.177344,59.096924],[13.123145,59.19751],[13.10332,59.25459],[13.103027,59.273975],[13.108105,59.283838],[13.118164,59.295508],[13.130078,59.319043],[13.142676,59.342285],[13.154883,59.35293],[13.173145,59.34751],[13.191406,59.324609],[13.217871,59.310547],[13.245703,59.310303],[13.25166,59.315039],[13.250977,59.324512],[13.248926,59.335742],[13.251172,59.344971],[13.261133,59.351758],[13.277539,59.357324],[13.315723,59.36123],[13.378223,59.364063],[13.461133,59.369971],[13.54834,59.381299],[13.62832,59.389941],[13.679688,59.389746],[13.719727,59.378027],[13.738477,59.359473],[13.743945,59.341455],[13.751953,59.331152],[13.766016,59.330908],[13.800293,59.337061],[13.830078,59.340918],[13.867383,59.33457],[13.904297,59.327734],[13.933301,59.330469],[13.961719,59.333984],[13.99707,59.329053],[14.028027,59.320068],[14.045508,59.313623],[14.051758,59.304834],[14.055664,59.28999],[14.054297,59.267773],[14.047461,59.241211],[14.027344,59.204297],[13.99375,59.157227],[13.946289,59.112939],[13.930566,59.089795],[13.94541,59.067432],[13.973438,59.065771],[14.00498,59.068164],[14.038379,59.082666]]]}},{"type":"Feature","properties":{"name":"Lake Onega","source":"Natural Earth 1:50m","ne_id":1159113251},"geometry":{"type":"Polygon","coordinates":[[[36.418945,61.392383],[36.418945,61.392383],[36.418945,61.392383],[36.42793,61.373145],[36.424902,61.349121],[36.408398,61.319141],[36.395605,61.3021],[36.382715,61.28501],[36.380078,61.280957],[36.373633,61.271143],[36.371191,61.256836],[36.378125,61.241895],[36.388477,61.225049],[36.394629,61.206152],[36.386914,61.184082],[36.363867,61.159717],[36.325,61.135498],[36.279297,61.113818],[36.224121,61.096484],[36.162793,61.082764],[36.09873,61.062646],[36.036816,61.029687],[35.97627,60.993896],[35.914844,60.966846],[35.880273,60.947754],[35.88418,60.931104],[35.904492,60.916553],[35.909863,60.90249],[35.899023,60.889795],[35.880273,60.87832],[35.855078,60.870508],[35.828711,60.866504],[35.800781,60.871826],[35.771582,60.886426],[35.719043,60.904541],[35.63457,60.918457],[35.550586,60.937988],[35.499414,60.969824],[35.47334,61.002148],[35.449805,61.022998],[35.426172,61.033154],[35.399609,61.039893],[35.363281,61.038232],[35.316113,61.028076],[35.254883,61.0146],[35.184473,61.004883],[35.13291,61.00708],[35.116797,61.022217],[35.092871,61.044678],[35.022363,61.064453],[34.94248,61.07041],[34.896289,61.046875],[34.869043,61.027002],[34.846387,61.02666],[34.828516,61.038623],[34.814941,61.055029],[34.802441,61.073535],[34.795508,61.096484],[34.79668,61.122803],[34.804004,61.149561],[34.81875,61.173633],[34.838086,61.193652],[34.887305,61.206104],[34.974219,61.211963],[35.074707,61.20708],[35.156641,61.193652],[35.206934,61.177246],[35.231055,61.165234],[35.207715,61.158789],[35.143164,61.155811],[35.077734,61.151318],[35.052637,61.141113],[35.062012,61.125635],[35.07998,61.10835],[35.108105,61.091602],[35.141992,61.077295],[35.19209,61.068945],[35.259277,61.066553],[35.345313,61.072559],[35.440625,61.062646],[35.527344,61.022803],[35.583398,61.034229],[35.614648,61.076123],[35.632227,61.107812],[35.629395,61.149951],[35.611426,61.197412],[35.577734,61.246387],[35.536914,61.292236],[35.494629,61.328955],[35.457422,61.355908],[35.398438,61.38584],[35.303906,61.42959],[35.153906,61.485156],[34.961621,61.543408],[34.772461,61.600879],[34.62998,61.654395],[34.531445,61.704346],[34.448242,61.75332],[34.387988,61.796143],[34.344531,61.831201],[34.322656,61.854492],[34.314551,61.868701],[34.335645,61.864404],[34.384668,61.843018],[34.445312,61.81875],[34.494434,61.807617],[34.53125,61.811572],[34.562402,61.823828],[34.58291,61.846045],[34.594336,61.874023],[34.59375,61.906006],[34.585938,61.937842],[34.566309,61.968896],[34.537305,61.998975],[34.476758,62.038525],[34.380957,62.092627],[34.294043,62.141504],[34.255176,62.168555],[34.255176,62.185693],[34.262109,62.210498],[34.26543,62.238232],[34.256543,62.262305],[34.222559,62.293701],[34.164941,62.33916],[34.09834,62.378857],[34.042383,62.396533],[34.00332,62.400781],[33.977539,62.408008],[33.961816,62.425098],[33.947266,62.452979],[33.940625,62.481592],[33.944043,62.500488],[33.958594,62.509961],[33.978711,62.515869],[34.00293,62.516064],[34.027148,62.511816],[34.053906,62.494531],[34.08418,62.463477],[34.136914,62.414014],[34.217676,62.352295],[34.291602,62.297266],[34.327539,62.263965],[34.329492,62.245703],[34.321191,62.227002],[34.342871,62.198926],[34.416992,62.158203],[34.51416,62.11958],[34.591406,62.096484],[34.635645,62.09502],[34.653223,62.108545],[34.644043,62.136133],[34.632422,62.181934],[34.646973,62.212646],[34.658105,62.245215],[34.614844,62.304346],[34.608984,62.338818],[34.633203,62.34834],[34.681543,62.338818],[34.695605,62.364551],[34.65957,62.406299],[34.592188,62.457959],[34.546973,62.497754],[34.526953,62.523584],[34.520215,62.54165],[34.532031,62.546289],[34.556641,62.539893],[34.595313,62.519092],[34.640625,62.489063],[34.695898,62.442676],[34.758496,62.382568],[34.810547,62.332324],[34.840527,62.310059],[34.851953,62.294434],[34.859277,62.2604],[34.870801,62.219385],[34.89248,62.187061],[34.928027,62.159668],[34.975684,62.117627],[35.028613,62.07793],[35.074902,62.053613],[35.114551,62.053613],[35.149609,62.070996],[35.165039,62.080664],[35.167773,62.09668],[35.143555,62.127246],[35.09375,62.172217],[35.051758,62.211572],[35.045898,62.22876],[35.095898,62.218066],[35.188379,62.190234],[35.283984,62.161572],[35.341309,62.149023],[35.387207,62.157812],[35.45498,62.180713],[35.518262,62.210498],[35.553516,62.235937],[35.563867,62.260156],[35.567188,62.287109],[35.558594,62.31875],[35.540234,62.354248],[35.49834,62.403564],[35.433105,62.468604],[35.351758,62.522656],[35.270898,62.54541],[35.201367,62.549658],[35.147168,62.55918],[35.092969,62.580469],[35.02373,62.61333],[34.966992,62.638965],[34.943359,62.642822],[34.867969,62.610547],[34.838574,62.591162],[34.776074,62.622314],[34.739258,62.621289],[34.703711,62.643408],[34.658203,62.679932],[34.621094,62.712354],[34.583105,62.755664],[34.535547,62.818457],[34.47959,62.873828],[34.489453,62.903613],[34.53252,62.915723],[34.605371,62.872754],[34.70332,62.844238],[34.787891,62.831104],[34.854883,62.825635],[34.910449,62.81543],[34.958105,62.797412],[35.005762,62.772998],[35.083008,62.741162],[35.201953,62.705273],[35.325977,62.666162],[35.415723,62.626709],[35.463867,62.604199],[35.487598,62.605908],[35.49502,62.619189],[35.503711,62.624707],[35.519434,62.617285],[35.543555,62.599365],[35.58457,62.576025],[35.641211,62.555566],[35.698047,62.537598],[35.739844,62.520215],[35.771191,62.495898],[35.80293,62.461133],[35.821875,62.411768],[35.822656,62.352197],[35.800391,62.281445],[35.764258,62.205176],[35.730176,62.13916],[35.674414,62.079395],[35.689355,62.040234],[35.749512,61.999072],[35.818359,61.951074],[35.842969,61.901904],[35.870703,61.854834],[35.925586,61.806396],[35.985449,61.755859],[36.025586,61.703613],[36.060645,61.654395],[36.108691,61.611084],[36.159082,61.571484],[36.200195,61.531201],[36.247266,61.493262],[36.312012,61.459473],[36.371484,61.432324],[36.405566,61.410742],[36.418945,61.392383]],[[35.325781,61.935352],[35.325781,61.935352],[35.325781,61.935352],[35.34707,61.997803],[35.339258,62.032812],[35.308008,62.076562],[35.251758,62.079687],[35.195605,61.987939],[35.170703,61.905664],[35.160352,61.858643],[35.201758,61.839062],[35.273633,61.870312],[35.325781,61.935352]]]}},{"type":"Feature","properties":{"name":"Issyk-Kul","source":"Natural Earth 1:50m","ne_id":1159126655},"geometry":{"type":"Polygon","coordinates":[[[78.302637,42.588379],[78.292383,42.564062],[78.158008,42.550098],[78.01416,42.487451],[77.870703,42.428271],[77.851758,42.402197],[77.853906,42.36665],[77.716211,42.240381],[77.59502,42.200391],[77.514551,42.181836],[77.136523,42.168164],[77.022949,42.173047],[76.921484,42.19043],[76.577734,42.291357],[76.432129,42.319531],[76.328711,42.32998],[76.263086,42.327588],[76.227246,42.388916],[76.21543,42.435205],[76.226465,42.460596],[76.452832,42.488574],[76.74707,42.565332],[76.965039,42.612256],[77.190234,42.646875],[77.337402,42.669678],[77.534863,42.651318],[77.684082,42.701807],[78.06377,42.72666],[78.248828,42.73374],[78.151367,42.671777],[78.118945,42.641504],[78.136328,42.607666],[78.302637,42.588379],[78.302637,42.588379],[78.302637,42.588379]]]}},{"type":"Feature","properties":{"name":"Lake Zaysan","source":"Natural Earth 1:50m","ne_id":1159123091},"geometry":{"type":"Polygon","coordinates":[[[84.515625,47.929883],[84.42666,47.856885],[84.394336,47.816162],[84.356836,47.732129],[84.295996,47.699121],[84.241797,47.706445],[83.994336,47.843262],[83.765625,47.951172],[83.624609,48.012793],[83.444531,48.048828],[83.258984,48.094629],[83.082617,48.178223],[83.026758,48.211865],[83.038574,48.249609],[83.182129,48.249365],[83.275098,48.261328],[83.435254,48.269971],[83.497559,48.304541],[83.532617,48.375146],[83.460742,48.432275],[83.392188,48.499854],[83.387012,48.554004],[83.417383,48.597461],[83.422656,48.743213],[83.471191,48.858203],[83.589453,48.962402],[83.747266,49.039258],[83.87168,49.062695],[84.036133,49.110596],[84.120605,49.159082],[84.099805,49.238037],[83.972461,49.328809],[83.848535,49.41709],[83.724414,49.439551],[83.660352,49.44292],[83.608008,49.48623],[83.538965,49.531885],[83.478906,49.538232],[83.426465,49.573389],[83.364844,49.626074],[83.363672,49.643848],[83.391211,49.652393],[83.608203,49.60625],[83.739844,49.630957],[83.889844,49.72041],[83.963574,49.726367],[83.96123,49.702637],[83.818262,49.633643],[83.79668,49.597119],[83.756543,49.564355],[83.729492,49.535205],[83.823145,49.483936],[84.287793,49.237695],[84.360645,49.160547],[84.328613,49.124854],[84.149023,49.086035],[83.864062,48.994385],[83.776758,48.975391],[83.60918,48.9104],[83.514063,48.81333],[83.486914,48.718262],[83.516797,48.616846],[83.613379,48.437256],[83.773926,48.410449],[83.919434,48.397217],[83.907129,48.373535],[83.681934,48.353418],[83.596191,48.303027],[83.58125,48.26748],[83.633594,48.241504],[83.740039,48.197656],[83.880664,48.151904],[84.051465,48.083496],[84.16709,48.055957],[84.333887,48.023096],[84.468359,47.969385],[84.515625,47.929883],[84.515625,47.929883],[84.515625,47.929883],[84.515625,47.929883]]]}},{"type":"Feature","properties":{"name":"Kh\u00f6vsg\u00f6l Nuur","source":"Natural Earth 1:50m","ne_id":1159113373},"geometry":{"type":"Polygon","coordinates":[[[100.786816,51.396973],[100.77041,51.293213],[100.748535,51.222266],[100.730273,51.138184],[100.684668,51.019336],[100.688184,50.983008],[100.507227,50.808691],[100.471582,50.739062],[100.445215,50.658936],[100.473437,50.625098],[100.472559,50.603223],[100.444336,50.568115],[100.37002,50.53833],[100.193359,50.493799],[100.179492,50.531299],[100.193848,50.594043],[100.228125,50.653857],[100.247754,50.742773],[100.296191,51.108594],[100.283984,51.250391],[100.356055,51.351611],[100.402148,51.39209],[100.387891,51.440576],[100.379687,51.466064],[100.491211,51.555762],[100.525,51.596875],[100.559277,51.610254],[100.752051,51.446777],[100.786816,51.396973],[100.786816,51.396973],[100.786816,51.396973],[100.786816,51.396973]]]}},{"type":"Feature","properties":{"name":"Uvs Nuur","source":"Natural Earth 1:50m","ne_id":1159126709},"geometry":{"type":"Polygon","coordinates":[[[92.316406,50.30166],[92.235449,50.412988],[92.348242,50.475049],[92.545898,50.540332],[92.789453,50.616943],[92.892773,50.658252],[92.964648,50.638232],[92.990234,50.607959],[92.977734,50.539551],[93.075879,50.427686],[93.227441,50.364062],[93.25918,50.358203],[93.254199,50.327344],[93.325391,50.30835],[93.361816,50.281592],[93.300586,50.25542],[93.21582,50.251123],[93.095215,50.19834],[93.018359,50.14502],[92.912793,50.055908],[92.72168,50.009961],[92.601367,50.005225],[92.49834,50.053174],[92.381738,50.141895],[92.336523,50.227588],[92.316406,50.30166],[92.316406,50.30166],[92.316406,50.30166],[92.316406,50.30166]]]}},{"type":"Feature","properties":{"name":"Lake Khanka","source":"Natural Earth 1:50m","ne_id":1159113423},"geometry":{"type":"Polygon","coordinates":[[[132.809766,45.051562],[132.742871,44.942676],[132.613574,44.711328],[132.459668,44.612598],[132.365527,44.529443],[132.275879,44.568994],[132.238477,44.606104],[132.241211,44.62998],[132.168555,44.673975],[132.069043,44.742529],[132.084375,44.851367],[132.108691,44.968652],[132.015137,45.074268],[132.017188,45.126611],[132.00498,45.214014],[132.071094,45.286816],[132.230176,45.328418],[132.401953,45.328955],[132.579492,45.29624],[132.725195,45.230078],[132.808203,45.148779],[132.809766,45.051562],[132.809766,45.051562],[132.809766,45.051562],[132.809766,45.051562]]]}},{"type":"Feature","properties":{"name":"Qinghai Hu","source":"Natural Earth 1:50m","ne_id":1159126725},"geometry":{"type":"Polygon","coordinates":[[[100.752734,36.810889],[100.745703,36.781104],[100.722656,36.74502],[100.722559,36.672803],[100.704297,36.589355],[100.627539,36.556836],[100.522949,36.580176],[100.430566,36.641064],[100.227734,36.644678],[99.958496,36.678711],[99.827441,36.739404],[99.700391,36.853125],[99.649902,36.911279],[99.680859,36.947412],[99.761621,36.948242],[99.816406,36.955371],[99.834473,36.988037],[99.804297,37.066602],[99.787207,37.149023],[99.836328,37.182471],[99.95625,37.217822],[100.104297,37.201562],[100.274512,37.150244],[100.447852,37.025195],[100.585547,36.902637],[100.752734,36.810889],[100.752734,36.810889],[100.752734,36.810889],[100.752734,36.810889]]]}},{"type":"Feature","properties":{"name":"Lake Urmia","source":"Natural Earth 1:50m","ne_id":1159126761},"geometry":{"type":"Polygon","coordinates":[[[45.666309,37.741895],[45.666309,37.741895],[45.666309,37.741895],[45.666309,37.741895],[45.74668,37.701172],[45.74873,37.662549],[45.75498,37.577734],[45.857715,37.426465],[45.831152,37.340527],[45.702637,37.302979],[45.662793,37.288135],[45.6125,37.211719],[45.535547,37.134863],[45.448535,37.149463],[45.364551,37.226611],[45.29248,37.438037],[45.257129,37.61543],[45.253223,37.684961],[45.23418,37.763672],[45.087012,37.8854],[45.080273,37.987598],[45.155469,38.044531],[45.188184,38.107861],[45.171191,38.143848],[45.091797,38.140039],[45.01543,38.144385],[45.025977,38.192725],[45.105566,38.264258],[45.356934,38.264258],[45.458398,38.173437],[45.487305,38.072949],[45.447461,37.932422],[45.435938,37.806201],[45.483203,37.753564],[45.546094,37.754346],[45.666309,37.741895]]]}},{"type":"Feature","properties":{"name":"Sarygamysh K\u00f6li","source":"Natural Earth 1:50m","ne_id":1159126775},"geometry":{"type":"Polygon","coordinates":[[[57.865039,41.773145],[57.817773,41.699854],[57.684863,41.636182],[57.526758,41.594482],[57.42959,41.578564],[57.345605,41.573242],[57.247168,41.652539],[57.174414,41.73457],[57.115918,41.731348],[57.061816,41.724854],[57.053418,41.773389],[57.09375,41.968408],[57.182715,42.185352],[57.272656,42.30332],[57.392285,42.334912],[57.549805,42.260693],[57.627246,42.149609],[57.613086,42.105029],[57.631738,42.065527],[57.682422,42.0104],[57.700293,41.912646],[57.844824,41.837842],[57.865039,41.773145],[57.865039,41.773145],[57.865039,41.773145]]]}},{"type":"Feature","properties":{"name":"Inarij\u00e4rvi","source":"Natural Earth 1:50m","ne_id":1159113545},"geometry":{"type":"Polygon","coordinates":[[[28.44707,69.325977],[28.44707,69.325977],[28.44707,69.325977],[28.44707,69.325977],[28.530273,69.336133],[28.631543,69.364355],[28.677051,69.394873],[28.760352,69.419141],[28.748633,69.393896],[28.695898,69.363184],[28.554199,69.298682],[28.532324,69.256982],[28.566406,69.221631],[28.540039,69.192432],[28.447656,69.152686],[28.441992,69.116016],[28.400391,69.082373],[28.250586,69.063818],[28.091016,69.007422],[28.092383,68.980713],[28.263672,68.92207],[28.329102,68.893115],[28.356152,68.872461],[28.33584,68.85708],[28.294922,68.851953],[28.078516,68.876221],[27.989453,68.879785],[27.89082,68.861035],[27.918652,68.828369],[27.978125,68.816406],[27.992383,68.787988],[27.869824,68.742432],[27.840039,68.749414],[27.836035,68.781836],[27.779102,68.792041],[27.699512,68.75918],[27.654785,68.731543],[27.566016,68.748633],[27.46416,68.760889],[27.433984,68.759521],[27.366406,68.751172],[27.282324,68.714844],[27.259766,68.736523],[27.359082,68.771484],[27.42793,68.802197],[27.416602,68.840674],[27.327637,68.883691],[27.270703,68.891016],[27.17207,68.905713],[27.161719,68.922998],[27.242383,68.946484],[27.484473,69.00415],[27.526074,69.031348],[27.560156,69.062256],[27.745313,69.129102],[27.940625,69.178418],[27.983594,69.161963],[28.088086,69.161914],[28.083594,69.189941],[28.049023,69.203125],[28.010645,69.227344],[27.99082,69.25376],[28.031445,69.288037],[28.100977,69.299316],[28.114648,69.271387],[28.138477,69.237256],[28.232422,69.248682],[28.309375,69.284375],[28.322559,69.305273],[28.344531,69.322949],[28.44707,69.325977]]]}},{"type":"Feature","properties":{"name":"Lake Peipus","source":"Natural Earth 1:50m","ne_id":1159113563},"geometry":{"type":"Polygon","coordinates":[[[27.568555,58.214795],[27.49707,58.184131],[27.472656,58.216748],[27.425488,58.303076],[27.323926,58.401904],[27.236621,58.452246],[27.156738,58.647949],[26.966406,58.805566],[26.974121,58.884277],[27.107324,58.954199],[27.298145,58.994922],[27.52373,59.006934],[27.683008,58.979639],[27.748438,58.912061],[27.813672,58.571338],[27.820508,58.484912],[27.798145,58.446826],[27.747852,58.429932],[27.582715,58.306396],[27.561328,58.257422],[27.568555,58.214795]]]}},{"type":"Feature","properties":{"name":"Lake Van","source":"Natural Earth 1:50m","ne_id":1159126829},"geometry":{"type":"Polygon","coordinates":[[[42.988672,38.345605],[42.922754,38.390039],[42.911621,38.426123],[42.882227,38.476807],[42.856445,38.48374],[42.780957,38.458594],[42.683301,38.456543],[42.586133,38.481592],[42.538477,38.489697],[42.353125,38.499805],[42.364551,38.548535],[42.433984,38.610498],[42.458398,38.642773],[42.458008,38.692187],[42.525977,38.745166],[42.722852,38.78208],[42.84502,38.793994],[42.934766,38.794189],[43.079395,38.809326],[43.162793,38.846191],[43.158789,38.868994],[43.126465,38.881836],[43.087598,38.881396],[43.075195,38.916113],[43.152148,38.947559],[43.284961,38.963574],[43.435938,38.987842],[43.560156,38.977637],[43.610742,38.947021],[43.531055,38.89751],[43.382812,38.836084],[43.291895,38.812793],[43.209961,38.715918],[43.186426,38.603125],[43.287109,38.547998],[43.318359,38.488721],[43.23457,38.407227],[43.147656,38.336621],[43.087695,38.326074],[42.988672,38.345605],[42.988672,38.345605],[42.988672,38.345605]]]}},{"type":"Feature","properties":{"name":"Lake Taymyr","source":"Natural Earth 1:50m","ne_id":1159114189},"geometry":{"type":"Polygon","coordinates":[[[101.022656,73.8604],[100.949023,73.893848],[101.025879,73.936475],[101.104004,73.992188],[101.062207,74.095117],[100.967969,74.195605],[100.899902,74.256006],[100.767773,74.291504],[100.607129,74.295947],[100.500391,74.307959],[100.411816,74.336865],[100.217578,74.346533],[100.079199,74.342676],[99.956641,74.331006],[99.70957,74.339697],[99.585156,74.360107],[99.507227,74.400391],[99.607422,74.419531],[99.830371,74.407275],[99.971875,74.408936],[100.171484,74.439893],[100.231934,74.48208],[100.351367,74.528662],[100.494727,74.577246],[100.500781,74.630713],[100.43418,74.721777],[100.318359,74.800391],[100.097363,74.860938],[100.132422,74.895508],[100.266211,74.935986],[100.419043,74.94751],[100.463379,75.006641],[100.285352,75.078613],[100.041895,75.10293],[100.026953,75.125488],[100.033496,75.147803],[100.109082,75.160107],[100.192383,75.150195],[100.301074,75.126563],[100.435156,75.087158],[100.537305,75.07251],[100.611914,75.036182],[100.615527,74.982275],[100.543848,74.931982],[100.533789,74.87334],[100.572656,74.822559],[100.706641,74.757422],[100.84082,74.720459],[101.058887,74.680664],[101.806152,74.641064],[102.483984,74.641309],[103.253125,74.675977],[103.493164,74.710449],[103.761719,74.7625],[104.032422,74.795264],[104.233984,74.814404],[104.209375,74.858789],[104.027539,74.884961],[103.877637,74.927539],[103.912207,74.985352],[103.990723,75.009229],[104.046875,75.020801],[104.11709,75.055127],[104.129395,75.088232],[104.145898,75.112451],[104.26377,75.12124],[104.467188,75.092969],[104.627832,75.011768],[104.864355,74.914551],[105.306543,74.854932],[105.333105,74.814404],[105.232422,74.784521],[104.972852,74.772461],[104.508105,74.739844],[103.998633,74.651318],[103.92002,74.632666],[103.842871,74.629248],[103.741504,74.632568],[103.568555,74.592627],[103.203906,74.567969],[102.833398,74.539941],[102.46416,74.515527],[102.040918,74.501953],[101.985547,74.413232],[102.073242,74.322314],[102.189648,74.240088],[102.16123,74.232617],[102.058887,74.231006],[101.978809,74.236084],[101.847559,74.258301],[101.691406,74.289746],[101.426465,74.355908],[101.312891,74.404004],[101.331348,74.438721],[101.365625,74.478857],[101.213086,74.490967],[101.049219,74.484277],[100.855859,74.463379],[100.882324,74.425],[100.981348,74.412354],[101.102832,74.386963],[101.099707,74.330127],[101.15625,74.245801],[101.277051,74.142969],[101.439063,74.042871],[101.528906,73.953125],[101.552539,73.878027],[101.532617,73.841309],[101.434766,73.838086],[101.376563,73.843555],[101.125195,73.849023],[101.022656,73.8604],[101.022656,73.8604],[101.022656,73.8604]]]}},{"type":"Feature","properties":{"name":"South Aral Sea","source":"Natural Earth 1:50m","ne_id":1159126555},"geometry":{"type":"Polygon","coordinates":[[[58.312075,45.06201],[58.37249,45.130523],[58.417007,45.290684],[58.549367,45.40771],[58.57403,45.532132],[58.638358,45.590201],[58.652714,45.721985],[58.711704,45.834903],[58.838334,45.834166],[58.81367,45.881653],[58.849377,45.918096],[59.059936,45.894536],[59.079078,45.943495],[59.179204,45.925826],[59.240311,45.993926],[59.302889,46.002393],[59.243992,45.892328],[59.104846,45.896745],[58.914165,45.794779],[58.869437,45.596097],[58.766184,45.562685],[58.671948,45.459614],[58.629247,45.263779],[58.682255,45.129787],[58.54679,45.007574],[58.588019,44.989905],[58.567036,44.915178],[58.624462,44.817997],[58.562619,44.772352],[58.524336,44.569155],[58.483107,44.504367],[58.364275,44.42472],[58.260032,44.431481],[58.235001,44.46093],[58.236776,44.524463],[58.321139,44.603021],[58.221012,44.84671],[58.312075,45.06201]]]}},{"type":"Feature","properties":{"name":"North Aral Sea","source":"Natural Earth 1:50m","ne_id":1729982865},"geometry":{"type":"Polygon","coordinates":[[[60.782878,46.085954],[60.752342,46.117724],[60.824808,46.201046],[60.722416,46.374185],[60.579589,46.2932],[60.348415,46.402897],[60.133439,46.356515],[59.988403,46.437868],[60.001655,46.57186],[60.286665,46.700146],[60.367649,46.616953],[60.401081,46.509323],[60.410398,46.504097],[60.42017,46.508414],[60.453347,46.617945],[60.459255,46.623399],[60.470617,46.62249],[60.580049,46.563025],[60.740808,46.627035],[60.745807,46.638851],[60.745353,46.653395],[60.525568,46.750762],[60.524832,46.777266],[60.580049,46.783892],[60.810767,46.747149],[60.776068,46.581431],[60.892391,46.473206],[61.133871,46.449647],[61.255738,46.492507],[61.263919,46.499779],[61.265282,46.512505],[61.202564,46.577496],[61.296576,46.61088],[61.314981,46.647691],[61.528486,46.677139],[61.450446,46.584376],[61.369814,46.527503],[61.283462,46.447514],[61.300257,46.38486],[61.217064,46.236879],[60.976685,46.16988],[60.862482,46.090003],[60.782878,46.085954]]]}},{"type":"Feature","properties":{"name":"Lake Balkhash","source":"Natural Earth 1:50m","ne_id":1159113111},"geometry":{"type":"Polygon","coordinates":[[[78.99082,46.748633],[78.99082,46.748633],[78.99082,46.748633],[78.99082,46.748633],[79.018848,46.768457],[79.022168,46.794922],[79.051855,46.807715],[79.08418,46.810107],[79.121875,46.798828],[79.176758,46.763867],[79.221973,46.72041],[79.244727,46.679688],[79.245117,46.645166],[79.235547,46.633545],[79.217285,46.609717],[79.157422,46.602783],[79.094922,46.581592],[79.067969,46.52583],[79.022754,46.447461],[78.971094,46.406006],[78.889844,46.369922],[78.787402,46.384814],[78.711328,46.396387],[78.625293,46.379834],[78.544336,46.401367],[78.46543,46.392432],[78.438379,46.376855],[78.435156,46.351758],[78.462109,46.312793],[78.445117,46.297168],[78.408691,46.298828],[78.367383,46.338525],[78.317285,46.349854],[78.233398,46.336865],[78.160645,46.318652],[78.127539,46.318652],[78.075195,46.328271],[78.017578,46.342627],[77.86543,46.428662],[77.81748,46.439404],[77.781152,46.422852],[77.725781,46.407129],[77.652148,46.41543],[77.562598,46.435449],[77.429297,46.499658],[77.355273,46.502246],[77.282031,46.472949],[77.165137,46.489014],[77.103906,46.454248],[77.003613,46.463672],[76.852637,46.492285],[76.741797,46.531982],[76.463965,46.541895],[76.238477,46.554883],[76.17627,46.531982],[76.033301,46.51167],[75.909375,46.535742],[75.866992,46.535645],[75.714551,46.516455],[75.611328,46.507178],[75.557813,46.530322],[75.514844,46.566699],[75.491602,46.596484],[75.490234,46.631006],[75.508203,46.636182],[75.548047,46.634473],[75.562402,46.645996],[75.559766,46.652979],[75.552832,46.672559],[75.50918,46.678027],[75.463281,46.670605],[75.417188,46.641113],[75.404004,46.609717],[75.432129,46.541895],[75.448047,46.49834],[75.405664,46.470801],[75.350098,46.469873],[75.330078,46.512695],[75.304004,46.519385],[75.277734,46.514893],[75.255859,46.47417],[75.24082,46.447656],[75.212207,46.426611],[75.151855,46.4375],[75.121094,46.446436],[75.093164,46.460889],[75.066699,46.450977],[75.0125,46.41709],[74.91123,46.404639],[74.888086,46.376562],[74.856641,46.293945],[74.815234,46.215625],[74.793848,46.130273],[74.771387,46.107812],[74.599219,46.022217],[74.549902,46.005908],[74.369922,46.020068],[74.278027,46.004053],[74.258203,45.976709],[74.253125,45.94165],[74.30332,45.789795],[74.289258,45.764697],[74.250781,45.761035],[74.242871,45.75166],[74.245313,45.739502],[74.310938,45.695459],[74.312695,45.670947],[74.289453,45.650635],[74.230762,45.615332],[74.100586,45.536865],[74.089355,45.509082],[74.082813,45.352051],[74.086523,45.343506],[74.12832,45.336865],[74.150977,45.317285],[74.155664,45.270557],[74.143359,45.10293],[74.135645,45.070166],[74.100977,45.058594],[74.094238,45.040088],[74.119531,44.999707],[74.1,44.988916],[74.056055,44.994434],[74.017188,45.012939],[74.00957,45.033789],[74.015625,45.056494],[73.993359,45.112354],[74.007715,45.146533],[73.999316,45.188721],[73.980664,45.204199],[73.876758,45.239258],[73.839746,45.263867],[73.662695,45.435645],[73.614746,45.51333],[73.465234,45.582471],[73.436719,45.609473],[73.443652,45.657031],[73.494336,45.686572],[73.531836,45.73418],[73.518848,45.763037],[73.451074,45.77959],[73.440039,45.805859],[73.463477,45.82627],[73.488281,45.831104],[73.559863,45.816357],[73.63252,45.906738],[73.715137,45.98252],[73.737109,46.012744],[73.662695,46.062354],[73.654004,46.092676],[73.645508,46.15],[73.679297,46.183057],[73.751953,46.202637],[73.774902,46.206494],[73.829395,46.185107],[73.897559,46.207861],[73.981836,46.186377],[74.020703,46.204883],[74.026953,46.222461],[73.949512,46.288379],[74.023242,46.369336],[74.094336,46.427832],[74.279785,46.470215],[74.374609,46.518018],[74.42998,46.578271],[74.524219,46.622949],[74.553125,46.690234],[74.625391,46.7521],[74.804297,46.780566],[74.939355,46.816797],[74.974023,46.814062],[75.088672,46.813623],[75.162695,46.774561],[75.200586,46.758789],[75.338477,46.729932],[75.426758,46.7375],[75.825879,46.818066],[75.950586,46.795117],[76.203125,46.780029],[76.297656,46.752881],[76.335938,46.728613],[76.405176,46.662256],[76.450488,46.640723],[76.496289,46.635547],[76.6,46.6646],[76.668359,46.673389],[76.699609,46.66748],[76.793066,46.630664],[76.859277,46.643848],[77.082422,46.624609],[77.174805,46.555957],[77.226367,46.566699],[77.266016,46.611377],[77.370313,46.622754],[77.601562,46.640039],[77.644727,46.656055],[77.690039,46.658643],[77.859961,46.647852],[78.136328,46.594922],[78.169336,46.580176],[78.29707,46.468555],[78.324316,46.482227],[78.347852,46.512061],[78.358789,46.623437],[78.367773,46.64292],[78.39707,46.657666],[78.433203,46.65249],[78.451953,46.618066],[78.476465,46.624609],[78.503906,46.664697],[78.551367,46.707373],[78.580566,46.723096],[78.630273,46.746973],[78.760938,46.723828],[78.783887,46.734912],[78.787305,46.75498],[78.793066,46.780029],[78.822949,46.794824],[78.868164,46.79873],[78.92959,46.78833],[78.99082,46.748633]]]}},{"type":"Feature","properties":{"name":"Lake Saimaa","source":"Natural Earth 1:50m","ne_id":1159113295},"geometry":{"type":"Polygon","coordinates":[[[29.517773,62.123096],[29.517773,62.123096],[29.517773,62.123096],[29.49209,62.088867],[29.469727,62.07998],[29.492188,62.045752],[29.552441,62.002832],[29.614844,61.983057],[29.638086,62.004541],[29.685449,62.003711],[29.756543,61.949463],[29.775391,61.906445],[29.776953,61.889404],[29.732617,61.874072],[29.727051,61.847949],[29.694336,61.834277],[29.660059,61.826074],[29.609863,61.802051],[29.531055,61.778174],[29.476758,61.742139],[29.426172,61.734375],[29.289941,61.648682],[29.265723,61.614844],[29.115137,61.600195],[29.098438,61.578369],[28.941016,61.625781],[28.730176,61.67124],[28.629102,61.641553],[28.608398,61.617383],[28.760449,61.609912],[28.789648,61.589941],[28.722461,61.580664],[28.679883,61.558105],[28.679492,61.524365],[28.692871,61.483887],[28.645508,61.476172],[28.582227,61.472998],[28.567969,61.441211],[28.463672,61.399268],[28.40625,61.37002],[28.345117,61.349365],[28.35957,61.331348],[28.476953,61.33208],[28.64082,61.351562],[28.662598,61.367773],[28.71416,61.351758],[28.82041,61.297314],[28.866992,61.247314],[28.787891,61.20415],[28.609961,61.161572],[28.358789,61.093359],[28.291602,61.07998],[27.9875,61.079736],[27.946777,61.067676],[27.918652,61.080322],[27.891895,61.114063],[27.881641,61.157227],[27.965527,61.188037],[28.082422,61.178516],[28.172363,61.152881],[28.197363,61.163428],[28.17373,61.188135],[28.072461,61.233154],[27.861914,61.252295],[27.677539,61.232324],[27.625293,61.213916],[27.519336,61.22959],[27.40625,61.259473],[27.432422,61.270117],[27.435352,61.295508],[27.367969,61.325977],[27.302832,61.329395],[27.270313,61.324268],[27.264551,61.378711],[27.300586,61.43335],[27.27373,61.468115],[27.297754,61.483643],[27.296094,61.557031],[27.27627,61.65293],[27.329199,61.692627],[27.327441,61.631787],[27.33916,61.596729],[27.358984,61.530566],[27.45918,61.523486],[27.476367,61.538818],[27.472461,61.549902],[27.470898,61.599414],[27.487988,61.618213],[27.49873,61.6],[27.515039,61.5771],[27.593164,61.581348],[27.664648,61.606836],[27.678125,61.636377],[27.75752,61.65625],[27.773047,61.685254],[27.705078,61.730664],[27.622559,61.76416],[27.604785,61.780811],[27.626367,61.800977],[27.816309,61.727881],[27.86582,61.696436],[27.917773,61.657031],[27.920996,61.626855],[27.945996,61.601367],[27.999609,61.549316],[28.053809,61.510547],[28.103906,61.522412],[28.128906,61.548975],[28.147266,61.550732],[28.18457,61.543945],[28.234375,61.621289],[28.247949,61.715625],[28.261719,61.744482],[28.305566,61.755518],[28.339355,61.749268],[28.36875,61.750781],[28.44209,61.76792],[28.539062,61.840869],[28.672168,61.825586],[28.806738,61.827783],[28.839746,61.846289],[28.838379,61.863477],[28.737109,61.891016],[28.696973,61.920703],[28.579199,61.992773],[28.426855,62.052441],[28.402832,62.069141],[28.29668,62.096777],[28.168164,62.096094],[28.08623,62.100439],[28.031934,62.10835],[27.925684,62.13335],[27.899219,62.157227],[27.902441,62.244482],[27.884863,62.306104],[27.876563,62.329248],[27.852051,62.353955],[27.844043,62.375635],[27.799609,62.429395],[27.755371,62.428613],[27.678906,62.411963],[27.596875,62.417822],[27.546973,62.411963],[27.489453,62.443066],[27.459082,62.479443],[27.419434,62.496094],[27.366602,62.482324],[27.297168,62.476758],[27.23584,62.507227],[27.177734,62.553418],[27.158887,62.577295],[27.191113,62.571777],[27.29541,62.518018],[27.339453,62.519141],[27.352051,62.543555],[27.372754,62.562402],[27.398047,62.575684],[27.6,62.494141],[27.64668,62.498437],[27.669922,62.512842],[27.669043,62.528467],[27.608008,62.600781],[27.618555,62.709814],[27.64834,62.734961],[27.666211,62.759521],[27.649512,62.815967],[27.666797,62.873828],[27.683789,62.911572],[27.651953,62.924707],[27.621484,62.916016],[27.5875,62.899658],[27.563672,62.877344],[27.559863,62.850684],[27.494141,62.863086],[27.414648,62.901562],[27.391211,62.940527],[27.330078,63.001318],[27.176074,63.083594],[27.194824,63.099316],[27.206836,63.121631],[27.193164,63.169385],[27.196582,63.229248],[27.193164,63.289307],[27.213477,63.309082],[27.246484,63.308398],[27.239258,63.332031],[27.190234,63.387549],[27.174805,63.438477],[27.134766,63.496143],[27.067969,63.523193],[27.038184,63.516602],[27.020313,63.501025],[26.958887,63.524268],[26.899414,63.566016],[26.898633,63.583984],[27.112793,63.546289],[27.183008,63.517871],[27.233789,63.456543],[27.234375,63.4271],[27.210547,63.41665],[27.250195,63.376172],[27.296973,63.355713],[27.338184,63.346045],[27.362793,63.31582],[27.346973,63.279395],[27.337305,63.21333],[27.263867,63.145654],[27.358496,63.06792],[27.439648,63.023438],[27.558789,63.001221],[27.605273,63.014648],[27.676563,62.979395],[27.722754,62.954346],[27.769727,62.945605],[27.774023,62.995703],[27.736035,63.058545],[27.767383,63.099854],[27.809766,63.092285],[27.848438,63.070703],[27.851074,63.03208],[27.888184,63.018896],[28.005566,63.040332],[28.106445,63.008936],[28.279199,63.031396],[28.351953,63.039746],[28.349707,63.02583],[28.308398,63.00293],[28.262305,62.983594],[28.192188,62.963525],[28.154492,62.932959],[28.186816,62.857373],[28.143945,62.825244],[28.149414,62.803711],[28.180664,62.771777],[28.211328,62.730029],[28.238867,62.705957],[28.268262,62.689209],[28.264355,62.662793],[28.653125,62.527246],[28.799023,62.455762],[28.898047,62.390332],[28.809766,62.381738],[28.659277,62.419971],[28.528906,62.474121],[28.496484,62.501416],[28.565137,62.498584],[28.555371,62.522607],[28.481738,62.555176],[28.424219,62.575293],[28.36709,62.587109],[28.340039,62.577148],[28.274316,62.565186],[28.211426,62.507764],[28.190918,62.447607],[28.169336,62.433691],[28.102637,62.441895],[28.105664,62.475977],[28.138379,62.538086],[28.056738,62.690381],[27.979395,62.732129],[27.849316,62.719385],[27.765625,62.679541],[27.755078,62.652393],[27.801465,62.627393],[27.758105,62.583154],[27.845801,62.523633],[27.91543,62.430273],[28.039648,62.408887],[28.041992,62.378857],[27.991113,62.337354],[27.962598,62.297852],[27.97002,62.258887],[28.067285,62.24375],[28.143945,62.25249],[28.276465,62.256152],[28.277148,62.276074],[28.32373,62.287305],[28.35791,62.269727],[28.40625,62.236963],[28.505957,62.219873],[28.56582,62.221582],[28.608496,62.278906],[28.629883,62.294336],[28.670313,62.305859],[28.699023,62.328467],[28.667578,62.368018],[28.66582,62.386963],[28.692578,62.383301],[28.765039,62.348438],[28.835059,62.26748],[28.87041,62.23501],[28.852246,62.212402],[28.837305,62.1854],[28.786328,62.177246],[28.825781,62.134131],[28.975781,62.142432],[29.139355,62.169189],[29.197852,62.177148],[29.330469,62.16582],[29.345313,62.185889],[29.352734,62.218555],[29.319043,62.242383],[29.298438,62.274805],[29.298438,62.312695],[29.278027,62.348877],[29.264551,62.393555],[29.29668,62.42627],[29.3,62.47583],[29.261328,62.55083],[29.279199,62.59873],[29.33457,62.600293],[29.351758,62.570557],[29.363867,62.530371],[29.421582,62.522559],[29.508887,62.466992],[29.626465,62.418506],[29.650293,62.427441],[29.611719,62.461768],[29.588867,62.500293],[29.592871,62.526758],[29.616309,62.559375],[29.632715,62.597168],[29.697266,62.609326],[29.775684,62.577295],[29.825,62.518115],[29.885352,62.462744],[29.926172,62.433594],[29.834961,62.388721],[29.801855,62.361768],[29.792578,62.334766],[29.768457,62.312988],[29.687598,62.315869],[29.640625,62.309912],[29.620215,62.294287],[29.599023,62.269775],[29.647852,62.223389],[29.727441,62.199316],[29.790723,62.199512],[29.87373,62.185059],[29.960449,62.16377],[29.981543,62.132812],[29.911133,62.115186],[29.708301,62.151074],[29.687598,62.138037],[29.606641,62.144775],[29.517773,62.123096]],[[27.849414,62.951416],[27.849414,62.951416],[27.849414,62.951416],[27.841992,62.911035],[27.886328,62.834424],[28.010742,62.775293],[28.071582,62.745752],[28.108789,62.755127],[28.108789,62.787793],[28.099414,62.851562],[28.074805,62.935156],[28.062109,62.975977],[27.990625,62.977539],[27.985938,62.977246],[27.903418,62.972852],[27.849414,62.951416]],[[27.637109,61.273193],[27.637109,61.273193],[27.637109,61.273193],[27.676563,61.310352],[27.658594,61.354639],[27.628711,61.383398],[27.555664,61.396582],[27.508887,61.408545],[27.417871,61.437305],[27.360352,61.421729],[27.328027,61.400195],[27.367578,61.369043],[27.475391,61.315137],[27.587891,61.266309],[27.637109,61.273193]],[[27.959277,61.48042],[27.959277,61.48042],[27.959277,61.48042],[27.968848,61.503174],[27.946289,61.52749],[27.923242,61.525928],[27.858594,61.51875],[27.793945,61.537891],[27.731641,61.547461],[27.712207,61.533789],[27.700488,61.487598],[27.66582,61.482812],[27.590332,61.486426],[27.548438,61.491211],[27.519629,61.485205],[27.563965,61.456445],[27.662207,61.434912],[27.712207,61.402783],[27.749609,61.401367],[27.797559,61.404932],[27.913672,61.44209],[27.959277,61.48042]],[[28.495605,61.478174],[28.495605,61.478174],[28.495605,61.478174],[28.444922,61.515674],[28.45918,61.558447],[28.493457,61.60166],[28.536426,61.621533],[28.51543,61.698682],[28.475586,61.7229],[28.387598,61.711914],[28.328125,61.729541],[28.277344,61.709668],[28.280664,61.664502],[28.286133,61.622607],[28.308203,61.581836],[28.242578,61.539062],[28.239844,61.523389],[28.255273,61.496924],[28.24541,61.472705],[28.225586,61.44292],[28.240137,61.394238],[28.307031,61.407617],[28.416211,61.416455],[28.494531,61.444043],[28.495605,61.478174]],[[29.476953,61.966797],[29.476953,61.966797],[29.476953,61.966797],[29.442188,62.037695],[29.363184,62.104639],[29.322266,62.12959],[29.232031,62.126074],[29.186523,62.12207],[29.102441,62.117725],[29.019141,62.124756],[28.938867,62.104639],[28.809082,62.081934],[28.70332,62.081934],[28.691211,62.036426],[28.714063,61.994922],[28.827734,61.962793],[28.944238,61.873145],[28.989746,61.802148],[29.136914,61.775391],[29.25459,61.807471],[29.309277,61.869531],[29.327051,61.944043],[29.341797,61.970801],[29.40332,61.974854],[29.444824,61.948096],[29.474219,61.950732],[29.476953,61.966797]]]}},{"type":"Feature","properties":{"name":"Lake Zaysan","source":"Natural Earth 1:50m","ne_id":1159123091},"geometry":{"type":"Polygon","coordinates":[[[84.515625,47.929883],[84.42666,47.856885],[84.394336,47.816162],[84.356836,47.732129],[84.295996,47.699121],[84.241797,47.706445],[83.994336,47.843262],[83.765625,47.951172],[83.624609,48.012793],[83.444531,48.048828],[83.258984,48.094629],[83.082617,48.178223],[83.026758,48.211865],[83.038574,48.249609],[83.182129,48.249365],[83.275098,48.261328],[83.435254,48.269971],[83.497559,48.304541],[83.532617,48.375146],[83.460742,48.432275],[83.392188,48.499854],[83.387012,48.554004],[83.417383,48.597461],[83.422656,48.743213],[83.471191,48.858203],[83.589453,48.962402],[83.747266,49.039258],[83.87168,49.062695],[84.036133,49.110596],[84.120605,49.159082],[84.099805,49.238037],[83.972461,49.328809],[83.848535,49.41709],[83.724414,49.439551],[83.660352,49.44292],[83.608008,49.48623],[83.538965,49.531885],[83.478906,49.538232],[83.426465,49.573389],[83.364844,49.626074],[83.363672,49.643848],[83.391211,49.652393],[83.608203,49.60625],[83.739844,49.630957],[83.889844,49.72041],[83.963574,49.726367],[83.96123,49.702637],[83.818262,49.633643],[83.79668,49.597119],[83.756543,49.564355],[83.729492,49.535205],[83.823145,49.483936],[84.287793,49.237695],[84.360645,49.160547],[84.328613,49.124854],[84.149023,49.086035],[83.864062,48.994385],[83.776758,48.975391],[83.60918,48.9104],[83.514063,48.81333],[83.486914,48.718262],[83.516797,48.616846],[83.613379,48.437256],[83.773926,48.410449],[83.919434,48.397217],[83.907129,48.373535],[83.681934,48.353418],[83.596191,48.303027],[83.58125,48.26748],[83.633594,48.241504],[83.740039,48.197656],[83.880664,48.151904],[84.051465,48.083496],[84.16709,48.055957],[84.333887,48.023096],[84.468359,47.969385],[84.515625,47.929883],[84.515625,47.929883],[84.515625,47.929883],[84.515625,47.929883]]]}},{"type":"Feature","properties":{"name":"P\u00e4ij\u00e4nne","source":"Natural Earth 1:50m","ne_id":1159113395},"geometry":{"type":"Polygon","coordinates":[[[26.949902,62.85166],[26.986328,62.857666],[27.092285,62.84248],[27.084277,62.833008],[27.017969,62.831934],[27.018359,62.800098],[26.957129,62.794189],[26.880078,62.795898],[26.91582,62.744385],[26.982617,62.686377],[26.952148,62.652393],[26.99873,62.613428],[26.983691,62.603174],[26.895703,62.623975],[26.852637,62.605615],[26.818652,62.563818],[26.825293,62.526416],[26.850977,62.497412],[26.886328,62.495361],[26.930078,62.481885],[26.908984,62.456348],[26.77832,62.478857],[26.735547,62.494434],[26.724219,62.553418],[26.690234,62.595508],[26.662305,62.582764],[26.665234,62.550928],[26.629395,62.479053],[26.580469,62.412061],[26.500098,62.391455],[26.425977,62.365918],[26.431641,62.329199],[26.419922,62.317676],[26.379395,62.345947],[26.384277,62.380859],[26.407031,62.418262],[26.46543,62.427002],[26.507617,62.424463],[26.510254,62.452783],[26.557715,62.490039],[26.526465,62.538916],[26.382812,62.566504],[26.273438,62.551025],[26.23877,62.521973],[26.238086,62.481299],[26.254297,62.437451],[26.288086,62.406592],[26.312305,62.367627],[26.276953,62.339941],[26.172656,62.35835],[26.127734,62.328955],[26.128223,62.279834],[26.089453,62.29502],[26.049609,62.347559],[25.99209,62.37251],[25.955957,62.355518],[25.978516,62.311133],[26.002344,62.276855],[25.974219,62.253564],[25.945898,62.210059],[25.951172,62.144629],[25.922656,62.148877],[25.898242,62.199512],[25.87627,62.205566],[25.826465,62.148193],[25.820996,62.07207],[25.87832,62.020996],[25.85791,62.001416],[25.789746,61.992285],[25.774219,61.966602],[25.70332,61.96416],[25.64082,61.950244],[25.632422,61.916162],[25.651465,61.903223],[25.700977,61.885156],[25.682031,61.868945],[25.615137,61.841602],[25.588281,61.792969],[25.62168,61.773535],[25.68291,61.801807],[25.721484,61.812744],[25.723047,61.778467],[25.680371,61.711914],[25.682031,61.637939],[25.705664,61.600977],[25.62998,61.6021],[25.585742,61.591113],[25.582617,61.540576],[25.573242,61.494434],[25.640918,61.466797],[25.606641,61.44209],[25.543164,61.422949],[25.557031,61.392529],[25.547266,61.334961],[25.580273,61.307812],[25.759277,61.278467],[25.977441,61.255029],[26.0125,61.234912],[26.027148,61.211865],[26.081543,61.195508],[26.118164,61.210547],[26.105664,61.245605],[26.1625,61.3104],[26.275098,61.374121],[26.278418,61.360303],[26.237891,61.316699],[26.25498,61.284473],[26.256934,61.247266],[26.233691,61.242041],[26.211914,61.263379],[26.172559,61.271094],[26.147852,61.256152],[26.175391,61.218115],[26.196973,61.175098],[26.184277,61.147803],[26.241113,61.10166],[26.216211,61.080762],[26.178418,61.059229],[26.175293,61.040918],[26.150098,61.003027],[26.095117,60.963818],[26.025293,60.961426],[26.070703,61.003906],[26.101758,61.101318],[26.026172,61.169727],[25.96084,61.190186],[25.9125,61.183545],[25.870996,61.168408],[25.7875,61.215137],[25.670313,61.272705],[25.621484,61.262793],[25.645313,61.23501],[25.656641,61.205859],[25.582617,61.166455],[25.531445,61.114941],[25.563867,61.079541],[25.603223,61.054785],[25.591797,61.023877],[25.54873,61.026562],[25.518164,61.061719],[25.480078,61.087744],[25.454004,61.072754],[25.405371,61.058447],[25.355566,61.075586],[25.397461,61.115918],[25.458984,61.15625],[25.499512,61.228906],[25.46543,61.280371],[25.441797,61.27251],[25.430762,61.25],[25.405957,61.250635],[25.393555,61.283887],[25.355566,61.314551],[25.302539,61.333691],[25.270508,61.352246],[25.25459,61.366162],[25.262891,61.388232],[25.193848,61.474512],[25.187891,61.531787],[25.232617,61.545996],[25.269922,61.568262],[25.338477,61.580371],[25.398145,61.583789],[25.418164,61.625928],[25.403027,61.669971],[25.357617,61.697168],[25.228027,61.759375],[25.209277,61.793652],[25.237305,61.796191],[25.30625,61.777197],[25.388672,61.793506],[25.443555,61.844092],[25.392969,61.87168],[25.313867,61.877832],[25.31748,61.902002],[25.423438,61.920654],[25.510352,61.930713],[25.506152,61.949902],[25.542773,61.98916],[25.624512,62.005273],[25.671484,62.058789],[25.585547,62.10127],[25.498438,62.111182],[25.47207,62.142139],[25.549512,62.142676],[25.667871,62.135596],[25.712891,62.16167],[25.716406,62.194238],[25.735254,62.219189],[25.760742,62.23457],[25.824023,62.252002],[25.881152,62.291748],[25.907129,62.32998],[25.922461,62.3854],[25.89707,62.440771],[25.864648,62.442871],[25.840527,62.433008],[25.825,62.44834],[25.814844,62.49126],[25.763184,62.534229],[25.689551,62.542773],[25.64375,62.589062],[25.632227,62.627441],[25.781055,62.651514],[25.794922,62.704736],[25.827051,62.725049],[25.893652,62.71958],[25.887695,62.756055],[25.831152,62.783008],[25.818359,62.794141],[25.856641,62.825049],[25.86582,62.874902],[25.934082,62.912598],[25.870313,62.986816],[25.832324,63.013525],[25.737402,63.045557],[25.61748,63.070703],[25.541016,63.030127],[25.52207,62.966113],[25.49541,62.957275],[25.436328,62.974512],[25.367871,63.006836],[25.383887,63.027588],[25.444238,63.052002],[25.448535,63.097949],[25.440332,63.128271],[25.505371,63.145361],[25.58877,63.210645],[25.622852,63.215771],[25.621484,63.182031],[25.68125,63.137451],[25.791992,63.091504],[25.82168,63.103467],[25.836816,63.129834],[25.903418,63.110742],[25.932422,63.082178],[25.990918,63.042578],[26.083594,62.993457],[26.079004,62.981396],[26.015234,62.990967],[26.014063,62.971924],[26.077148,62.929736],[26.219727,62.854053],[26.364063,62.767578],[26.370703,62.725488],[26.302051,62.728906],[26.203223,62.780762],[26.103223,62.826416],[26.066602,62.819238],[26.0375,62.796436],[26.012891,62.751562],[26.006836,62.709668],[25.979688,62.706152],[26.02041,62.665479],[26.029297,62.632031],[25.912891,62.647949],[25.820508,62.61333],[25.833887,62.534961],[25.938086,62.462256],[26.024414,62.476758],[26.05625,62.521045],[26.096289,62.518848],[26.10293,62.488184],[26.069141,62.453613],[26.083789,62.420801],[26.160059,62.388281],[26.184961,62.460352],[26.178125,62.550293],[26.216797,62.572217],[26.342285,62.607812],[26.358984,62.633301],[26.450977,62.633203],[26.469043,62.703809],[26.387109,62.789258],[26.357617,62.82627],[26.359473,62.853564],[26.446582,62.796924],[26.502344,62.749951],[26.562891,62.706348],[26.69043,62.636523],[26.785449,62.608691],[26.813184,62.623291],[26.826758,62.658643],[26.821875,62.697266],[26.75,62.742383],[26.689063,62.787207],[26.670703,62.816895],[26.594922,62.871777],[26.568359,62.9],[26.589746,62.900879],[26.680176,62.846045],[26.730176,62.835889],[26.743359,62.865625],[26.713281,62.928955],[26.729102,62.957129],[26.761523,62.958984],[26.765039,62.97959],[26.916699,63.006592],[26.996484,63.030811],[27.033496,63.019434],[26.97793,62.998389],[26.93125,62.940771],[26.947656,62.915625],[26.929883,62.912744],[26.894141,62.916846],[26.888672,62.89458],[26.927246,62.85874],[26.949902,62.85166],[26.949902,62.85166],[26.949902,62.85166],[26.949902,62.85166]]]}}]}
