{"type":"FeatureCollection","features":[{"type":"Feature","properties":{"name":"Kama","source":"Natural Earth 1:50m","ne_id":null},"geometry":{"type":"MultiLineString","coordinates":[[[51.937134,55.701066],[51.880866,55.686259],[51.820312,55.697455],[51.747602,55.693663],[51.662842,55.608173],[51.578711,55.599433],[51.513428,55.583124],[51.508545,55.529486],[51.48584,55.496405],[51.369141,55.467963],[51.213063,55.50265],[51.134521,55.482733],[51.079346,55.467597],[50.980225,55.466376],[50.834452,55.45631],[50.688379,55.420111],[50.411865,55.40119],[50.078027,55.381122],[49.822168,55.334662],[49.532227,55.260614],[49.382324,55.17182],[49.248085,55.113019]]]}},{"type":"Feature","properties":{"name":"Kama","source":"Natural Earth 1:50m","ne_id":null},"geometry":{"type":"MultiLineString","coordinates":[[[53.693848,58.206317],[53.677148,58.273456],[53.625879,58.35705],[53.552344,58.394477],[53.464746,58.418769],[53.428955,58.434882],[53.438867,58.484565],[53.471436,58.511005],[53.491797,58.586737],[53.381104,58.671942],[53.299561,58.779975],[53.247168,58.825214],[53.201172,58.930365],[53.238672,59.011298],[53.218652,59.099482],[53.149902,59.127997],[53.063086,59.178241],[53.003174,59.209247],[52.964258,59.281855],[52.912012,59.339667],[52.866211,59.40246],[52.814551,59.493769],[52.688965,59.581562],[52.614746,59.607733],[52.608643,59.679755],[52.639063,59.71015],[52.687402,59.733759],[52.76709,59.723651],[52.803223,59.758173],[52.86582,59.798358],[52.919922,59.896308],[52.975,59.956171],[53.035059,59.973163],[53.126074,59.989618],[53.220703,60.014911],[53.322266,60.052021],[53.400879,60.055854],[53.450879,60.07392],[53.492285,60.124457],[53.526465,60.138935],[53.594922,60.137567],[53.732031,60.18371],[53.825276,60.209904],[53.896582,60.258857],[53.946777,60.292353],[53.986328,60.322699],[54.038281,60.337226],[54.105078,60.335761],[54.154688,60.357196],[54.266504,60.361274],[54.313379,60.336982],[54.391211,60.276972],[54.520508,60.238959],[54.849219,60.245185],[55.035059,60.225898],[55.146212,60.20318],[55.25,60.220966],[55.358301,60.251288],[55.571191,60.31081],[55.664258,60.416523],[55.71543,60.485419],[55.872656,60.500116],[55.979395,60.458686],[56.109619,60.423847],[56.137207,60.392279],[56.135254,60.384711],[56.164551,60.33393],[56.156152,60.287299],[56.150098,60.23371],[56.152246,60.204657],[56.168213,60.154853],[56.235742,60.158515],[56.276855,60.140497],[56.28125,60.107367],[56.29873,60.052436],[56.294336,60.000507],[56.311035,59.945258],[56.341406,59.929511],[56.36377,59.923041],[56.384668,59.916571],[56.433838,59.882685],[56.470898,59.850458],[56.549561,59.811469],[56.590918,59.76557],[56.623242,59.69123],[56.66084,59.62453],[56.683496,59.562079],[56.685791,59.451923],[56.67832,59.388788],[56.612305,59.349066],[56.575293,59.332782],[56.427002,59.304267],[56.341553,59.279364],[56.240137,59.249579],[56.209082,59.197455],[56.179297,59.098163],[56.223527,58.996622],[56.251855,58.884833],[56.267822,58.809516],[56.144531,58.69599],[56.08877,58.654853],[56.094824,58.571845],[56.176855,58.554462],[56.251221,58.522162],[56.392822,58.442694],[56.340723,58.26142],[56.334473,58.146015],[56.333252,58.136054],[56.331348,58.109735],[56.328223,58.096381],[56.322021,58.077753],[56.308496,58.058539],[56.200781,58.027899],[56.065888,58.030233],[55.890869,57.949286],[55.832031,57.945575],[55.794461,58.022366],[55.725586,58.075507],[55.660645,58.069037],[55.63252,58.015082],[55.474854,57.895819],[55.299219,57.876654],[55.246582,57.87414],[55.212305,57.832465],[55.266992,57.795966],[55.34668,57.763251],[55.399805,57.680487],[55.449316,57.589911],[55.525098,57.57746],[55.543701,57.531562],[55.455566,57.330439],[55.35498,57.313056],[55.248242,57.305609],[55.136475,57.34162],[55.080664,57.340839],[55.042578,57.305439],[55.015723,57.236591],[54.978516,57.114447],[54.922266,57.090839],[54.849854,57.085565],[54.781494,57.055365],[54.670313,57.041938],[54.539438,57.055183],[54.45332,57.041938],[54.379004,56.997748],[54.313477,56.984076],[54.22168,56.97912],[54.166992,56.941913],[54.149658,56.869892],[54.135937,56.820258],[54.088379,56.771186],[54.045654,56.753046],[53.99585,56.736151],[53.949463,56.739814],[53.916992,56.777411],[53.910156,56.812201],[53.884521,56.827899],[53.830957,56.839057],[53.797461,56.833686],[53.74585,56.805365],[53.742578,56.793647],[53.750488,56.777118],[53.751953,56.758734],[53.746973,56.714716],[53.756592,56.6737],[53.773926,56.660907],[53.780518,56.653876],[53.79248,56.612665],[53.800098,56.528144],[53.813965,56.490058],[53.841797,56.458075],[53.853516,56.419379],[53.86582,56.400653],[53.899902,56.393183],[53.974512,56.360297],[54.03457,56.343085],[54.102051,56.277777],[54.156641,56.240107],[54.18457,56.188349],[54.117188,56.158271],[54.098633,56.143671],[54.08291,56.123114],[54.046777,56.058051],[54.005859,56.028925],[53.948828,56.022284],[53.887939,56.031806],[53.834473,56.051215],[53.773682,56.051215],[53.739355,56.033564],[53.663477,55.992621],[53.643311,55.982294],[53.564941,55.96955],[53.543457,55.958686],[53.539551,55.951044],[53.538574,55.939716],[53.539648,55.917743],[53.538574,55.914252],[53.535645,55.910761],[53.525781,55.904071],[53.499268,55.89289],[53.285742,55.851996],[53.063477,55.869818],[52.992187,55.900336],[52.916602,55.925849],[52.841797,55.929877],[52.760254,55.954169],[52.708496,55.965155],[52.608643,55.92829],[52.529541,55.862812],[52.468262,55.852362],[52.376709,55.869818],[52.331527,55.871444],[52.306396,55.841986],[52.31582,55.803241],[52.343514,55.753289],[52.351758,55.729315],[52.334952,55.705342],[52.276563,55.695746],[52.094141,55.694892],[52.023193,55.722113],[51.935653,55.701066]]]}},{"type":"Feature","properties":{"name":"Amur","source":"Natural Earth 1:50m","ne_id":null},"geometry":{"type":"MultiLineString","coordinates":[[[137.069908,50.454078],[137.101379,50.298119],[137.05673,50.215721],[136.946453,50.154872],[136.87209,50.097873],[136.83354,50.044594],[136.771218,49.914628],[136.770288,49.849929],[136.810492,49.759289]],[[140.114063,51.763637],[139.949732,51.639587],[139.902086,51.596825],[139.857748,51.578816]]]}},{"type":"Feature","properties":{"name":"Angara","source":"Natural Earth 1:50m","ne_id":null},"geometry":{"type":"MultiLineString","coordinates":[[[106.497304,52.383108],[106.437772,52.414889],[106.352196,52.403675],[106.220628,52.360112],[106.068699,52.264407],[105.896203,52.116664],[105.725258,51.997757],[105.555759,51.907788],[105.361094,51.847327],[105.141262,51.816372],[104.989902,51.818569],[104.865672,51.871511]],[[103.374187,53.107275],[103.403487,53.282097],[103.403591,53.425008],[103.384212,53.5943],[103.278895,53.796717],[103.087382,54.032258],[103.057772,54.218293],[103.18996,54.354874],[103.250783,54.481481],[103.240241,54.598166],[103.192441,54.695628],[103.107381,54.773815],[103.132651,54.892076],[103.268147,55.050335],[103.32928,55.180353],[103.315947,55.282052],[103.277965,55.378532],[103.215333,55.469896],[103.185568,55.574541],[103.188772,55.692467],[103.150583,55.776802],[103.071104,55.827549],[103.02382,55.895219],[103.008628,55.979865],[102.964599,56.057199],[102.891632,56.127272],[102.751486,56.173057],[102.54416,56.194555],[102.303968,56.167554],[102.030806,56.092055],[101.862858,56.071772],[101.800174,56.106705],[101.777385,56.165823],[101.803223,56.290776]],[[102.673971,57.943079],[102.673868,57.855074],[102.651233,57.789496],[102.606068,57.717046],[102.533721,57.637619],[102.434296,57.551164],[102.37125,57.44559],[102.344585,57.320843],[102.337971,57.194752],[102.358021,57.003704]]]}},{"type":"Feature","properties":{"name":"Dniester","source":"Natural Earth 1:50m","ne_id":null},"geometry":{"type":"MultiLineString","coordinates":[[[30.478326,46.101166],[30.311204,46.233483],[30.258856,46.288209],[30.268778,46.320041]]]}},{"type":"Feature","properties":{"name":"Dnipro","source":"Natural Earth 1:50m","ne_id":null},"geometry":{"type":"MultiLineString","coordinates":[[[33.539896,46.83125],[33.606456,46.868767],[33.661594,46.956979],[33.738747,47.049583],[33.85874,47.149215],[33.975839,47.307216],[33.997543,47.411241],[34.154897,47.489556],[34.447903,47.542215],[34.711504,47.55255],[34.945805,47.520666],[35.087967,47.527539],[35.138093,47.573272],[35.14879,47.657479],[35.105692,47.841576]],[[33.193974,49.093903],[32.884484,49.224903],[32.602848,49.302211],[31.886457,49.554702]],[[31.439869,50.000101],[31.47966,49.93287],[31.486482,49.871375],[31.467361,49.754173]],[[30.507627,51.217313],[30.477706,50.904335],[30.479463,50.749151],[30.514655,50.596602]]]}},{"type":"Feature","properties":{"name":"Don","source":"Natural Earth 1:50m","ne_id":null},"geometry":{"type":"MultiLineString","coordinates":[[[42.109709,47.601772],[42.303392,47.660657],[42.484157,47.728457],[42.663009,47.794344],[42.832456,47.837649],[42.881393,47.884726],[42.927075,47.961156],[43.042365,48.186051],[43.132231,48.293848],[43.236772,48.389424],[43.458619,48.539389],[43.527504,48.614268],[43.521613,48.652612],[43.480581,48.698527],[43.464872,48.737387],[43.47438,48.76922],[43.521561,48.820741],[43.606414,48.891951],[43.690284,48.92859],[43.773173,48.930709],[43.84366,48.949002],[43.895905,48.967632],[43.922828,49.009567],[43.937815,49.072457],[43.984633,49.135812],[43.955746,49.186249],[43.904845,49.204206],[43.784801,49.203147],[43.749144,49.207178],[43.708165,49.249707],[43.700103,49.327894],[43.65933,49.40192],[43.602383,49.485714],[43.549104,49.506643]]]}},{"type":"Feature","properties":{"name":"Ertis","source":"Natural Earth 1:50m","ne_id":null},"geometry":{"type":"MultiLineString","coordinates":[[[83.363728,49.643843],[83.603197,49.519872],[83.730528,49.470547],[83.825612,49.454475],[83.959454,49.379415],[84.13195,49.245367],[84.204091,49.161961],[84.175772,49.129301],[84.012423,49.070028],[83.714043,48.984142],[83.53271,48.888747],[83.468425,48.783844],[83.450442,48.668451],[83.478864,48.542515],[83.524287,48.45451],[83.586816,48.404384],[83.589038,48.359038],[83.531057,48.318472],[83.50651,48.272713],[83.515502,48.221837],[83.642471,48.136804],[83.887314,48.017638],[84.072471,47.90227],[84.197838,47.790701],[84.284602,47.734218],[84.356846,47.732126]]]}},{"type":"Feature","properties":{"name":"Neva","source":"Natural Earth 1:50m","ne_id":null},"geometry":{"type":"MultiLineString","coordinates":[[[31.042788,59.950992],[31.180867,59.982954],[31.273678,60.053906],[31.414031,60.234825]]]}},{"type":"Feature","properties":{"name":"Ob","source":"Natural Earth 1:50m","ne_id":null},"geometry":{"type":"MultiLineString","coordinates":[[[83.025351,54.845206],[82.312423,54.49086],[82.003967,54.358362],[81.86227,54.329604],[81.74052,54.268936],[81.638666,54.176332],[81.522084,54.104088],[81.390619,54.052257],[81.32716,53.991149],[81.334085,53.885626]]]}},{"type":"Feature","properties":{"name":"Sukhona","source":"Natural Earth 1:50m","ne_id":null},"geometry":{"type":"MultiLineString","coordinates":[[[39.053462,59.868439],[39.500101,59.615845],[39.686394,59.53001],[39.798636,59.52523]]]}},{"type":"Feature","properties":{"name":"Ural","source":"Natural Earth 1:50m","ne_id":null},"geometry":{"type":"MultiLineString","coordinates":[[[58.835096,52.196814],[58.781663,52.071499],[58.766884,51.976414],[58.772775,51.869702],[58.739547,51.786038],[58.630871,51.695088]]]}},{"type":"Feature","properties":{"name":"Verkhniy Yenisey","source":"Natural Earth 1:50m","ne_id":null},"geometry":{"type":"MultiLineString","coordinates":[[[91.510931,53.735428],[91.454397,53.830203],[91.466386,53.903609],[91.527985,53.987299],[91.555993,54.045642],[91.550516,54.078767],[91.484318,54.16703],[91.357504,54.310535],[91.285622,54.41456],[91.268672,54.479156],[91.178755,54.550211],[91.015768,54.627803],[90.938615,54.721673],[90.947193,54.831899],[90.988379,54.925847],[91.062173,55.003516],[91.351045,55.086974],[91.85489,55.176219],[92.18226,55.291406],[92.408448,55.503124]]]}},{"type":"Feature","properties":{"name":"Volga","source":"Natural Earth 1:50m","ne_id":null},"geometry":{"type":"MultiLineString","coordinates":[[[45.663601,50.222309],[45.831187,50.357288],[45.835838,50.457127],[45.733416,50.566836],[45.679827,50.646573],[45.675176,50.696492],[45.743699,50.741761],[45.885499,50.782482],[45.980894,50.824056],[46.029883,50.866482],[46.043784,50.925031],[46.022597,50.999678],[45.96782,51.065901],[45.879453,51.123624],[45.835787,51.188194],[45.836717,51.259559],[45.869686,51.321906],[45.934695,51.375185],[45.971179,51.422753],[45.979344,51.464663],[46.032674,51.506159],[46.131376,51.54719],[46.218399,51.614318],[46.293846,51.707542],[46.365367,51.745808],[46.477194,51.773248],[46.565768,51.752139],[46.679663,51.743948],[46.774644,51.747927]],[[49.058949,55.48266],[49.285085,55.234407],[49.248085,55.113019],[49.023499,55.035762],[48.900199,54.90993],[48.878288,54.735574],[48.781963,54.616977],[48.611328,54.55419],[48.507148,54.489129],[48.469528,54.421795],[48.453301,54.344435],[48.458366,54.256999],[48.585076,54.134939],[48.833433,53.978256],[48.964484,53.826921],[48.978334,53.680936],[49.006239,53.579417],[49.048304,53.522315],[49.104373,53.482679],[49.209431,53.460639],[49.567032,53.467434],[49.904789,53.456737]],[[43.432419,56.674991],[43.343897,56.733437],[43.286485,56.814259],[43.230674,56.93699],[43.174967,57.023858],[43.119363,57.074889],[43.088512,57.118891],[43.082415,57.15584],[43.103964,57.212994],[43.177758,57.329007],[42.874314,57.409571],[42.723832,57.431198],[42.575831,57.415462]],[[37.151149,56.753435],[36.881811,56.782943],[36.736084,56.749921],[36.624152,56.664294],[36.519818,56.642693],[36.374555,56.706358]],[[37.760931,57.290819],[37.943762,57.311696],[38.078792,57.381872],[38.300949,57.571628]],[[41.342521,57.493287],[41.206095,57.517084],[41.099228,57.587906],[40.976342,57.713687],[40.889163,57.784199],[40.83759,57.79947],[40.70597,57.789625],[40.494407,57.754744],[40.293179,57.694644],[40.007098,57.566667]],[[38.437065,58.017544],[38.325909,58.082863],[38.319243,58.149733],[38.407713,58.287554],[38.704026,58.113146]]]}},{"type":"Feature","properties":{"name":"Amur","source":"Natural Earth 1:50m","ne_id":null},"geometry":{"type":"MultiLineString","coordinates":[[[136.810492,49.759289],[136.842531,49.729161],[136.843978,49.677692],[136.825271,49.594854],[136.720782,49.519691],[136.530406,49.452279],[136.393773,49.367297],[136.310884,49.264771],[136.271197,49.171056],[136.274814,49.0861],[136.161849,48.98701],[135.817684,48.81715],[135.744666,48.764181],[135.66865,48.754647],[135.565193,48.770925],[135.444839,48.767876],[135.307483,48.745552],[135.184855,48.704521],[135.077058,48.644757],[135.026208,48.570524],[135.032409,48.481847],[134.964506,48.421024],[134.8225,48.388055],[134.708708,48.383145],[134.623029,48.406296],[134.486654,48.403351],[134.205896,48.359891],[133.842198,48.273746],[133.671769,48.207704],[133.573274,48.133031],[133.46837,48.097168],[133.301145,48.101535],[133.144049,48.105643],[133.020129,48.064405],[132.877089,47.979087],[132.772806,47.940072],[132.707177,47.947255],[132.636897,47.8901],[132.561862,47.768506],[132.476286,47.714969],[132.380168,47.72949],[132.149795,47.717966],[131.785269,47.680501],[131.556756,47.682025],[131.464255,47.722617],[131.319354,47.727811],[131.121847,47.697632],[131.002784,47.691456],[130.96196,47.70931],[130.932866,47.759798],[130.9154,47.84292],[130.848634,47.929426],[130.732568,48.01924],[130.712053,48.127657],[130.78719,48.254574],[130.804244,48.341494],[130.763419,48.388416],[130.746883,48.430378],[130.65924,48.483398],[130.597279,48.574658],[130.552114,48.602512],[130.565602,48.68013],[130.617175,48.773173],[130.553148,48.861204],[130.355279,48.866372],[130.196012,48.891641],[130.037055,48.972257],[129.792522,49.198858],[129.671083,49.278491],[129.591398,49.286656],[129.533727,49.323424],[129.498173,49.38882],[129.440709,49.38944],[129.384692,49.38944],[129.350069,49.362362],[129.309865,49.353835],[129.248421,49.37864],[129.185118,49.381379],[129.120109,49.362052],[129.065125,49.374661],[129.02027,49.419258],[128.938311,49.44892],[128.819352,49.463751],[128.770259,49.494705],[128.791033,49.541834],[128.769019,49.576974],[128.70401,49.600125],[128.52676,49.594234],[128.237062,49.559301],[127.999609,49.568603],[127.814297,49.622139],[127.711151,49.671542],[127.69017,49.716759],[127.636685,49.760193],[127.550799,49.801793],[127.50243,49.873416],[127.491784,49.975038],[127.512352,50.071673],[127.59028,50.208977]],[[139.857748,51.578816],[139.805865,51.562822],[139.705147,51.558171],[139.602415,51.544296],[139.494566,51.504944],[139.448987,51.449185],[139.378397,51.405441],[139.282796,51.373712],[139.159289,51.36348],[139.007981,51.374642],[138.918064,51.350458],[138.889538,51.290823],[138.825046,51.247518],[138.674564,51.207081],[138.06809,50.855992],[137.707698,50.714269],[137.391387,50.664866],[137.18711,50.60673],[137.094816,50.539809],[137.053991,50.493301],[137.069908,50.454078]],[[140.114063,51.763662],[140.146929,51.786271],[140.206047,51.813995],[140.218449,51.875361],[140.182017,51.964477],[140.214729,52.046488],[140.316738,52.121315],[140.385261,52.226477],[140.420401,52.361895],[140.404536,52.467961],[140.337615,52.544597],[140.261961,52.591932],[140.177522,52.609916],[140.124915,52.657303],[140.104141,52.734146],[139.996241,52.822357],[139.80111,52.921886],[139.756565,53.032009],[139.862709,53.152673],[140.002545,53.215202],[140.176281,53.219594],[140.3433,53.187555],[140.5036,53.119084],[140.614394,53.091385],[140.706688,53.110996],[140.783479,53.105105],[140.839703,53.087871]]]}},{"type":"Feature","properties":{"name":"Anadyr\u2019","source":"Natural Earth 1:50m","ne_id":null},"geometry":{"type":"MultiLineString","coordinates":[[[170.96572,67.09885],[171.345128,66.974052],[171.447964,66.825585],[171.507909,66.765847],[171.559069,66.745332],[171.377064,66.685697],[170.961792,66.58697],[170.65871,66.486071],[170.467817,66.383028],[170.247521,66.304067],[169.99782,66.249187],[169.85664,66.206295],[169.823877,66.175393],[169.809976,66.070851],[169.814782,65.892722],[169.765845,65.791488],[169.611591,65.755056],[169.123248,65.646588],[168.934733,65.582302],[168.883418,65.526156],[168.786111,65.474712],[168.642968,65.427996],[168.574445,65.370429],[168.580646,65.302009],[168.654026,65.245449],[168.794586,65.200749],[168.813603,65.140417],[168.710974,65.064504],[168.645861,64.994715],[168.618163,64.931076],[168.703532,64.866325],[168.902073,64.800464],[169.145676,64.781059],[169.43434,64.808138],[169.754838,64.795218],[170.107374,64.742405],[170.399811,64.720391],[170.632252,64.729176],[170.733383,64.776667],[170.760461,64.822969],[170.775861,64.858832],[170.787591,64.912188],[170.831981,64.927562],[170.890582,64.92596],[170.976779,64.958826],[171.090467,65.02616],[171.124677,65.075718],[171.079305,65.107499],[171.067419,65.162302],[171.088916,65.240075],[171.260792,65.280563],[171.582943,65.283767],[171.79337,65.2524],[171.891968,65.186461],[172.0224,65.151682],[172.184767,65.147962],[172.294424,65.168787],[172.351578,65.214211],[172.497513,65.26643],[172.732434,65.325496],[172.889323,65.392262],[172.968182,65.466728],[173.053344,65.515898],[173.144812,65.539721],[173.234212,65.544113],[173.321648,65.529024],[173.370121,65.502281],[173.379629,65.463886],[173.45611,65.414509],[173.599668,65.354202],[173.675787,65.309916],[173.684572,65.2817],[173.668191,65.241754],[173.605869,65.16424],[173.549852,65.123674],[173.543185,65.089516],[173.56706,65.048226],[173.648347,65.020657],[173.786943,65.006782],[173.909933,64.951385],[174.01711,64.854517],[174.163509,64.777648],[174.441787,64.692434],[174.54886,64.683907]]]}},{"type":"Feature","properties":{"name":"Angara","source":"Natural Earth 1:50m","ne_id":null},"geometry":{"type":"MultiLineString","coordinates":[[[104.866912,51.870219],[104.437016,52.165085],[104.289583,52.288592],[104.281418,52.339079],[104.204627,52.399386],[104.059416,52.469511],[103.972806,52.539584],[103.944901,52.609606],[103.877205,52.673994],[103.769873,52.732802],[103.70998,52.799],[103.697578,52.872587],[103.617221,52.933643],[103.46891,52.982167],[103.389586,53.031647],[103.374187,53.107275]],[[101.803223,56.290776],[101.817176,56.560579],[101.77046,56.687031],[101.667624,56.760102],[101.560551,56.800564],[101.449136,56.808471],[101.391465,56.847771],[101.387435,56.918542],[101.460918,56.969856],[101.61171,57.001689],[101.777798,56.98815],[101.958976,56.929316],[102.112868,56.897768],[102.239269,56.89353],[102.316422,56.919523],[102.358125,57.003963]],[[102.673971,57.943079],[102.795101,58.121879],[102.836855,58.245282],[102.839646,58.372871],[102.780321,58.523715],[102.659088,58.697761],[102.479978,58.829639],[102.46222,58.836371]],[[102.489073,58.829226],[102.46222,58.836371]],[[102.46222,58.836371],[102.1009,58.932514]],[[102.46222,58.836371],[102.243196,58.919401],[102.1009,58.932514]],[[102.1009,58.932514],[101.84167,58.956402],[101.275503,58.940692],[100.979707,58.898679],[100.954283,58.830311],[100.81703,58.757602],[100.56795,58.680553],[100.437105,58.627223],[100.424393,58.597664],[100.433849,58.555238],[100.465372,58.499995],[100.441239,58.438604],[100.361451,58.371114],[100.250915,58.346258],[100.109631,58.363957],[99.986486,58.411525],[99.88148,58.488937],[99.753632,58.536169],[99.603047,58.553222],[99.472099,58.594408],[99.360995,58.659727],[99.241209,58.700681],[99.112741,58.717295],[98.961639,58.700913],[98.787697,58.651614],[98.690648,58.600248],[98.670494,58.546763],[98.62843,58.505525],[98.564661,58.476431],[98.321523,58.44558],[97.89912,58.412972],[97.571647,58.408425],[97.339206,58.431938],[97.170689,58.430387],[97.0662,58.403774],[96.983672,58.393387],[96.923108,58.39933],[96.850089,58.431834],[96.764616,58.491004],[96.513882,58.527281],[96.097887,58.540716],[95.776511,58.522113],[95.549755,58.471522],[95.418393,58.424574],[95.382581,58.381295],[95.234735,58.30732],[94.974906,58.202546],[94.599218,58.139966],[94.107569,58.119502],[93.730124,58.128752],[93.466884,58.167716],[93.278782,58.161386],[93.165817,58.109735],[93.079725,58.086274],[92.998076,58.100097]],[[102.1009,58.932514],[101.947814,58.973248]]]}},{"type":"Feature","properties":{"name":"Daugava","source":"Natural Earth 1:50m","ne_id":null},"geometry":{"type":"MultiLineString","coordinates":[[[32.077557,56.907741],[32.062157,56.877045],[32.096832,56.861129],[32.176517,56.849812],[32.241681,56.820615],[32.317749,56.750102],[32.272894,56.60931],[32.233103,56.551846],[32.183597,56.530762],[32.134917,56.478336],[32.087065,56.394568],[32.072647,56.315142],[32.091561,56.240056],[32.067841,56.193857],[32.001489,56.176546],[31.974307,56.14355],[31.986296,56.094871],[31.875295,56.068878],[31.641408,56.065519],[31.479454,56.038905],[31.38964,55.989038],[31.37946,55.888837],[31.449016,55.738355],[31.415323,55.655104],[31.278381,55.639085],[31.171359,55.600638],[31.05581,55.509325],[30.643226,55.436074],[30.408615,55.36936],[30.214415,55.284739],[30.166976,55.234872],[30.147855,55.194719],[30.087497,55.183144],[29.925233,55.203814],[29.814956,55.205003],[29.756768,55.186709],[29.725762,55.161388],[29.722041,55.128935],[29.686798,55.115964],[29.620032,55.122475],[29.554817,55.106973],[29.491255,55.06943],[29.452394,55.070954],[29.438234,55.11152],[29.40573,55.132139],[29.354777,55.132811],[29.315606,55.155342],[29.288218,55.199732],[29.202073,55.257687],[29.057069,55.329181],[29.00069,55.380186],[28.993042,55.408866],[28.91868,55.454652],[28.723549,55.52364],[28.503925,55.566014],[28.259908,55.581776],[28.087154,55.620223],[27.985765,55.681408],[27.928146,55.739957],[27.914297,55.795871],[27.880862,55.816748],[27.855179,55.819229],[27.764021,55.80848],[27.604135,55.79768],[27.45913,55.803493],[27.34906,55.831476],[27.014817,55.898526],[26.809248,55.907234],[26.620835,55.879897],[26.489164,55.899121],[26.41413,55.964853],[26.364469,56.038905],[26.340181,56.121329],[26.294344,56.17838],[26.226958,56.210058],[26.18417,56.264473],[26.165876,56.341626],[26.06428,56.417719],[25.879382,56.492831],[25.77851,56.552879],[25.761663,56.597838],[25.70978,56.60931],[25.622757,56.587192],[25.53408,56.589776],[25.443646,56.617113],[25.357708,56.619464],[25.276163,56.596907],[25.174464,56.594324],[25.052611,56.611687],[24.890708,56.668324],[24.688654,56.764236],[24.505409,56.827384],[24.340975,56.85777],[24.22031,56.893944],[24.143519,56.935827],[24.091377,56.985333],[24.054325,57.066129]]]}},{"type":"Feature","properties":{"name":"Dnepre","source":"Natural Earth 1:50m","ne_id":null},"geometry":{"type":"MultiLineString","coordinates":[[[33.735337,55.873696],[33.817709,55.82667],[33.82608,55.801969],[33.787736,55.783934],[33.803033,55.76409],[33.871866,55.742489],[33.890986,55.713034],[33.845201,55.657068],[33.767893,55.569787],[33.702057,55.545809],[33.621855,55.556041],[33.584545,55.498215],[33.590126,55.372331],[33.56992,55.28722],[33.523928,55.24283],[33.473337,55.1448],[33.390655,54.917217]]]}},{"type":"Feature","properties":{"name":"Dniester","source":"Natural Earth 1:50m","ne_id":null},"geometry":{"type":"MultiLineString","coordinates":[[[30.478326,46.101166],[30.49295,46.090159]],[[22.846595,49.267071],[23.082343,49.460651],[23.388371,49.55403],[23.607376,49.564753],[23.841263,49.52398],[24.018617,49.481011],[24.13923,49.435923],[24.226615,49.372361],[24.280668,49.290351],[24.360457,49.245211],[24.46598,49.237047],[24.594292,49.181908],[24.745394,49.079795],[24.851176,49.02786],[24.911637,49.026],[24.98693,48.998198],[25.122116,48.917635],[25.154517,48.878464],[25.185367,48.881874],[25.210534,48.88451],[25.230274,48.864253],[25.250738,48.841903],[25.301898,48.841903],[25.339001,48.832472],[25.397654,48.845288],[25.520541,48.808907],[25.668232,48.689406],[25.731226,48.658917],[25.780577,48.659873],[25.826982,48.649176],[25.894058,48.607524],[25.95793,48.601943],[26.005421,48.613803],[26.036633,48.617239],[26.071928,48.572281],[26.092909,48.562669],[26.130374,48.572152],[26.168718,48.547244],[26.253106,48.529441],[26.397903,48.535126],[26.498466,48.516677],[26.554793,48.474096],[26.59107,48.466293],[26.607296,48.493268],[26.638819,48.504223],[26.668378,48.516574],[26.694319,48.539001],[26.720468,48.549957],[26.758708,48.561842],[26.78403,48.564788],[26.80377,48.579076],[26.834983,48.582565],[26.883558,48.558251],[26.996678,48.560344],[27.271907,48.600548],[27.432982,48.58365],[27.479904,48.509597],[27.573749,48.464897],[27.714412,48.449498],[27.820039,48.41627],[27.890629,48.365214],[27.963389,48.333562],[28.038423,48.321289],[28.080126,48.295812],[28.088498,48.257055],[28.158829,48.237986],[28.291018,48.238555],[28.347138,48.213052],[28.326984,48.161428],[28.340524,48.144452],[28.387549,48.162125],[28.423051,48.146881],[28.442016,48.108692],[28.463049,48.090502],[28.495656,48.095928],[28.539168,48.104093],[28.574463,48.068746],[28.571776,48.027973],[28.604384,48.008956],[28.653321,48.017121],[28.765562,47.98658],[28.933924,47.897904],[29.010199,47.795739],[28.994386,47.680087],[29.017485,47.582677],[29.079497,47.503561],[29.103475,47.449559],[29.089419,47.420775],[29.102958,47.391785],[29.119908,47.368504],[29.116445,47.340547],[29.103733,47.310187],[29.153859,47.234792],[29.144557,47.180971],[29.131948,47.153246],[29.136961,47.135573],[29.172256,47.135573],[29.215147,47.143143],[29.264963,47.146037],[29.313591,47.115781],[29.35917,47.06643],[29.360255,47.029404],[29.316743,47.004625],[29.300207,46.983851],[29.310645,46.967108],[29.423558,46.954705],[29.472444,46.911814],[29.498593,46.828718],[29.537298,46.80058],[29.588665,46.8274],[29.635173,46.812595],[29.676825,46.756113],[29.689795,46.715004],[29.673982,46.689192],[29.693413,46.664542],[29.748086,46.640926],[29.763434,46.620462],[29.769842,46.601032],[29.805137,46.580878],[29.898258,46.553438],[30.131009,46.423084],[30.219685,46.426288],[30.254102,46.400527],[30.268778,46.320041]]]}},{"type":"Feature","properties":{"name":"Dnipro","source":"Natural Earth 1:50m","ne_id":null},"geometry":{"type":"MultiLineString","coordinates":[[[32.577991,46.615605],[32.645481,46.649608],[32.93368,46.717278],[33.066644,46.758748],[33.236969,46.777455],[33.35691,46.785878],[33.451271,46.808797],[33.539896,46.83125]],[[35.105279,47.840129],[35.129928,47.971982],[35.117629,48.037585],[35.076598,48.08089],[35.087192,48.10833],[35.14941,48.119957],[35.184912,48.150033],[35.193697,48.198609],[35.169564,48.279844],[35.112617,48.393713],[34.958828,48.477067],[34.818578,48.492157],[34.708197,48.529906],[34.410127,48.640184],[34.225384,48.736405],[34.064619,48.807822],[33.717353,48.942207],[33.507599,49.008068],[33.36306,49.065403],[33.193974,49.093903]],[[31.888007,49.554443],[31.690655,49.636144],[31.4624,49.756705]],[[31.439869,50.000101],[31.244326,49.978913],[31.07121,50.0232],[30.855512,50.125778],[30.706684,50.221999],[30.624829,50.311813],[30.566589,50.416665],[30.514655,50.596602]],[[33.390655,54.917217],[33.109277,54.985791],[32.977915,55.001139],[32.902778,54.986153],[32.822834,54.957886],[32.738085,54.916287],[32.687028,54.870966],[32.669769,54.821925],[32.611271,54.762937],[32.511535,54.694052],[32.381621,54.694853],[32.221424,54.765391],[32.005571,54.777122],[31.598309,54.706687],[30.973748,54.65514],[30.71764,54.613411],[30.621728,54.56437],[30.55212,54.544216],[30.508815,54.553001],[30.462565,54.536594],[30.413265,54.494969],[30.360245,54.424792],[30.303505,54.326038],[30.318387,54.184703],[30.404894,54.000839],[30.406651,53.89901],[30.323555,53.879244],[30.275134,53.801548],[30.261388,53.665975],[30.283661,53.522832],[30.371201,53.296592],[30.27901,53.250497],[30.260303,53.205977],[30.284178,53.147635],[30.251467,53.120169],[30.162066,53.123579],[30.090804,53.100609],[30.037578,53.051232],[30.03427,52.954003],[30.080883,52.808844],[30.143411,52.710168],[30.222063,52.657923],[30.258081,52.606221],[30.25157,52.555009],[30.279423,52.50708],[30.341539,52.462379],[30.365465,52.429823],[30.351099,52.409308],[30.396987,52.379956],[30.503131,52.341793],[30.545815,52.3058],[30.525042,52.271952],[30.583901,52.196608],[30.72229,52.079767],[30.796188,51.99569],[30.805386,51.944323],[30.772933,51.893887],[30.698623,51.844381],[30.624829,51.765729],[30.551345,51.657881],[30.547262,51.544916],[30.612478,51.426784],[30.610721,51.330123],[30.507627,51.217313]]]}},{"type":"Feature","properties":{"name":"Don","source":"Natural Earth 1:50m","ne_id":null},"geometry":{"type":"MultiLineString","coordinates":[[[42.109709,47.601772],[42.014728,47.560327],[41.852981,47.563893],[41.754744,47.590093],[41.592738,47.598671],[41.406806,47.598671],[41.295289,47.563893],[41.183926,47.547331],[41.072821,47.548984],[41.009208,47.566864],[40.993085,47.601022],[40.970244,47.61004],[40.926009,47.585907],[40.588458,47.491443],[40.411622,47.401396],[40.283051,47.284349],[40.112363,47.222493],[39.89956,47.21593],[39.68934,47.187172],[39.377886,47.11082],[39.293447,47.105756]],[[43.549104,49.506643],[43.379192,49.486644],[43.315734,49.455922],[43.301988,49.407811],[43.251913,49.365463],[43.165407,49.328876],[43.095489,49.324018],[43.042055,49.350812],[43.015907,49.380035],[43.017044,49.411661],[42.956634,49.44215],[42.834781,49.471503],[42.796851,49.515634],[42.769876,49.57253],[42.730963,49.581522],[42.647092,49.566561],[42.446484,49.578524],[42.296726,49.599479],[42.006253,49.610254],[41.832568,49.596508],[41.712937,49.615757],[41.467061,49.613019],[41.379521,49.588033],[41.313634,49.586767],[41.269502,49.609194],[41.260975,49.629684],[41.288054,49.648184],[41.279269,49.683066],[41.234517,49.734303],[41.140363,49.770296],[40.996599,49.791121],[40.921048,49.827269],[40.913606,49.878765],[40.889577,49.921759],[40.848959,49.956202],[40.778007,49.963824],[40.676618,49.944549],[40.644372,49.953385],[40.621221,49.976536],[40.5959,50.026559],[40.501539,50.120404],[40.431569,50.139162],[40.385887,50.082886],[40.321808,50.06511],[40.197991,50.096322],[40.039655,50.10335],[40.001414,50.132548],[40.030456,50.186239],[40.026529,50.238381],[39.989632,50.289024],[40.001931,50.345635],[40.063632,50.40819],[40.036347,50.475369],[39.920282,50.547096],[39.907001,50.617376],[39.879406,50.649829],[39.794347,50.691867],[39.757191,50.733441],[39.768043,50.774627],[39.794088,50.7969],[39.814242,50.833125],[39.788507,50.874156],[39.774658,50.918727],[39.777862,50.952187],[39.744789,50.962109],[39.677403,50.954565],[39.512865,50.95968],[39.266162,50.987017],[39.14312,51.024147],[39.143844,51.071121],[39.181567,51.110524],[39.256292,51.142408],[39.262079,51.173259],[39.198931,51.203128],[39.176762,51.237571],[39.16007,51.294182],[39.13108,51.363997],[39.051808,51.429574],[39.051653,51.477091],[39.058939,51.507115],[39.037235,51.539671],[39.017701,51.567654],[39.011914,51.597213],[39.038165,51.625893],[39.045813,51.656744],[39.034961,51.689817],[39.060335,51.757151],[39.122036,51.85867],[39.139968,51.934091],[39.13294,52.011735]],[[39.13294,52.018556],[39.151647,52.051604],[39.163791,52.08416],[39.154386,52.124881],[39.096456,52.179348],[38.990003,52.247664],[38.957653,52.289367],[38.958067,52.327194],[38.904943,52.43773],[38.930678,52.576223],[38.932745,52.664589],[38.910938,52.702882],[38.964371,52.794142],[39.092942,52.938371],[39.155367,53.117843],[39.151543,53.332611],[39.111649,53.448572],[39.056045,53.518594],[39.021319,53.560917],[38.998064,53.576213],[38.87125,53.6182],[38.64098,53.686827],[38.530961,53.753722],[38.541193,53.818886],[38.529256,53.860873],[38.478096,53.889011],[38.306117,54.063755]]]}},{"type":"Feature","properties":{"name":"Ertis","source":"Natural Earth 1:50m","ne_id":null},"geometry":{"type":"MultiLineString","coordinates":[[[85.267075,47.994383],[84.998564,47.927669],[84.880018,47.879584],[84.821831,47.82783],[84.728503,47.782665],[84.599932,47.744011],[84.490946,47.726545],[84.356846,47.732126]],[[83.363728,49.643843],[83.128291,49.681877],[82.990676,49.748282],[82.872337,49.855769],[82.696276,49.946719],[82.462388,50.021185],[82.321208,50.100663],[82.272736,50.185154],[82.150056,50.219028],[81.953169,50.202311],[81.774575,50.22758],[81.614171,50.294837],[81.482448,50.325197],[81.379405,50.318686],[81.248302,50.33778],[81.089035,50.382455],[80.962945,50.39217],[80.870031,50.366978],[80.691023,50.360441],[80.425923,50.372533],[80.241852,50.409947],[80.138706,50.472733],[80.018713,50.495781],[79.881874,50.479141],[79.701936,50.51671],[79.479004,50.608436],[79.312813,50.662076],[79.203362,50.677579],[79.115926,50.667011],[79.050297,50.630347],[78.899505,50.650862],[78.545315,50.767289],[78.348221,50.857594],[78.245488,50.922758],[78.171487,50.992908],[78.106168,51.093729],[78.049634,51.225297],[77.959821,51.335291],[77.836831,51.423709],[77.690586,51.498717],[77.520984,51.560316],[77.441196,51.651008],[77.451118,51.77082],[77.333554,51.886239],[77.088504,51.99724],[76.960088,52.108267],[76.948203,52.219294],[76.899627,52.303371],[76.814257,52.360448],[76.779738,52.411065],[76.796171,52.455196],[76.794414,52.502248],[76.77457,52.552219],[76.734107,52.588754],[76.673026,52.611854],[76.654267,52.63963],[76.677935,52.672134],[76.679485,52.704173],[76.659021,52.735799],[76.549777,52.816156],[76.513811,52.827267],[76.493709,52.830135],[76.479342,52.850237],[76.484975,52.885041],[76.460894,52.898735],[76.31434,52.905246],[76.260286,52.930077],[76.241889,52.979945],[76.144324,53.014594],[75.967487,53.034076],[75.854626,53.077742],[75.805637,53.145645],[75.727192,53.201869],[75.619188,53.246363],[75.56839,53.282459],[75.566685,53.304008],[75.544878,53.321836],[75.520538,53.332507],[75.503278,53.344005],[75.506172,53.361213],[75.50333,53.396586],[75.457441,53.455497],[75.357395,53.520093],[75.20309,53.590424],[75.10077,53.65378],[75.050231,53.71021],[75.039947,53.789327],[75.069816,53.891078],[75.061961,53.952883],[74.993593,53.985594]]]}},{"type":"Feature","properties":{"name":"Ertix","source":"Natural Earth 1:50m","ne_id":null},"geometry":{"type":"MultiLineString","coordinates":[[[90.325371,47.650167],[90.283823,47.4909],[90.25261,47.430387],[90.20052,47.408011],[90.132411,47.40119],[90.063991,47.355714],[89.972524,47.26926],[89.872323,47.212958],[89.763286,47.186732],[89.654507,47.125909],[89.54609,47.030411],[89.40553,46.990181],[89.233034,47.005219],[89.032426,47.061469],[88.80381,47.158982],[88.51499,47.233035],[88.165968,47.283729],[87.847279,47.348221],[87.559028,47.426563],[87.386997,47.495396],[87.33129,47.55472],[87.265713,47.580197],[87.190162,47.571825],[87.100245,47.590765],[86.943562,47.660114],[86.607251,47.832352],[86.433412,47.877595],[86.310112,47.853307],[86.154152,47.875657],[85.965637,47.944645],[85.792314,47.980198],[85.634081,47.982317],[85.543647,47.994383],[85.520806,48.016449],[85.448873,48.019188],[85.267075,47.994383]]]}},{"type":"Feature","properties":{"name":"Heilong Jiang","source":"Natural Earth 1:50m","ne_id":null},"geometry":{"type":"MultiLineString","coordinates":[[[127.59028,50.208977],[127.395253,50.298584],[127.33722,50.350157],[127.351173,50.393617],[127.340786,50.428085],[127.306059,50.45351],[127.30823,50.494179],[127.347194,50.550093],[127.346832,50.621355],[127.306989,50.707965],[127.198262,50.829456],[127.020392,50.98588],[126.924842,51.100137],[126.91151,51.172329],[126.887738,51.230129],[126.854407,51.261367],[126.83384,51.314878],[126.847741,51.374177],[126.827329,51.412263],[126.801801,51.448049],[126.805418,51.505642],[126.774515,51.545071],[126.709196,51.566284],[126.688733,51.609925],[126.700825,51.703046],[126.653696,51.781284],[126.510552,51.925823],[126.468074,52.031295],[126.455568,52.126457],[126.394797,52.173017],[126.39149,52.214488],[126.383532,52.286499],[126.346324,52.306265],[126.324207,52.331664],[126.341674,52.362024],[126.312838,52.399748],[126.237597,52.444809],[126.202974,52.483825],[126.194447,52.519146],[126.15662,52.546638],[126.045929,52.573355],[126.015957,52.610226],[126.023243,52.643014],[126.047015,52.673478],[126.06014,52.691978],[126.056006,52.715878],[126.048151,52.739468],[126.00433,52.767891],[125.941646,52.800705],[125.871883,52.871528],[125.782793,52.890725],[125.728119,52.890725],[125.680784,52.930826],[125.695356,52.956303],[125.691687,53.00369],[125.649054,53.042267],[125.595983,53.057485],[125.54596,53.047615],[125.422453,53.083737],[125.225566,53.165799],[125.075033,53.203678],[124.970956,53.197322],[124.906619,53.172672],[124.882124,53.129729],[124.812361,53.133837],[124.639865,53.210654],[124.465922,53.229645],[124.369133,53.270935],[124.291463,53.340853],[124.219943,53.370102],[124.154314,53.358681],[123.994685,53.405629],[123.740954,53.510998],[123.607784,53.546525],[123.559725,53.526681],[123.534713,53.526449],[123.489496,53.529446],[123.424022,53.530764],[123.309611,53.555594],[123.154065,53.544587],[122.957591,53.497717],[122.744787,53.46852],[122.515861,53.456996],[122.380158,53.462525],[122.337784,53.485004],[122.088807,53.451466],[121.405437,53.317056]]]}},{"type":"Feature","properties":{"name":"Indigirka","source":"Natural Earth 1:50m","ne_id":null},"geometry":{"type":"MultiLineString","coordinates":[[[144.713472,62.766298],[144.440776,63.009126],[144.31608,63.09062],[144.248591,63.091756],[143.973827,63.17847],[143.491893,63.350785],[143.055072,63.47008],[142.663261,63.536329],[142.445704,63.598961],[142.402192,63.658027],[142.299821,63.728513],[142.05782,63.851478],[141.914987,63.953513],[141.885118,64.03697],[141.920774,64.135879],[142.012138,64.215409],[142.159209,64.27556],[142.366432,64.293311],[142.633806,64.268636],[142.788732,64.302923],[142.831416,64.396095],[142.83953,64.459012],[142.861802,64.501024],[142.917096,64.531643],[143.151397,64.578823],[143.267462,64.633006],[143.265292,64.694191],[143.294644,64.747521],[143.355519,64.792996],[143.338414,64.871493],[143.243433,64.983011],[143.161319,65.055022],[143.091969,65.0875],[143.084941,65.134216],[143.140131,65.195116],[143.157495,65.240308],[143.160905,65.277049],[143.168657,65.311673],[143.218473,65.344022],[143.229893,65.370713],[143.207776,65.388619],[143.134344,65.403579],[142.813846,65.424198],[142.636906,65.461483],[142.603317,65.515433],[142.617579,65.592224],[142.679694,65.691856],[142.810746,65.789008],[143.010734,65.883731],[143.146901,66.017108],[143.219145,66.189138],[143.22271,66.309235],[143.157598,66.377344],[143.105922,66.465762],[143.067578,66.574438],[142.987221,66.650196],[142.864748,66.692932],[142.753798,66.81277],[142.654476,67.009657],[142.614996,67.160294],[142.635459,67.26468],[142.598614,67.31447],[142.57412,67.340825],[142.577892,67.363434],[142.618303,67.394905],[142.63639,67.42498],[142.655096,67.45193],[142.845214,67.502934],[143.336657,67.600448],[143.647077,67.636621],[143.776475,67.611455],[144.014703,67.603884],[144.361866,67.613858],[144.573532,67.625562],[144.649703,67.638972],[144.694662,67.661193],[144.708304,67.692199],[144.670684,67.713903],[144.581956,67.726228],[144.527437,67.750025],[144.50718,67.785217],[144.593893,67.813768],[144.884521,67.846531],[145.024668,67.870922],[145.058774,67.907948],[145.066629,67.953837],[145.093087,67.980295],[145.167191,67.984739],[145.237988,67.995281],[145.28212,68.022877],[145.278709,68.046958],[145.278296,68.081762],[145.312505,68.111192],[145.346457,68.142068],[145.357671,68.178733],[145.4233,68.199868],[145.538538,68.191962],[145.644371,68.21842],[145.653156,68.26697],[145.714858,68.293429],[145.809012,68.28839],[145.856038,68.303738],[145.869267,68.350712],[145.912675,68.382648],[145.900583,68.431172],[145.969106,68.498248],[146.070754,68.547082],[146.205629,68.577649],[146.358126,68.57752],[146.528348,68.546772],[146.646067,68.544705],[146.71149,68.571422],[146.809313,68.580827],[146.939641,68.572972],[147.021755,68.624339],[147.055551,68.734926],[147.143608,68.800633],[147.285822,68.821458],[147.34618,68.855436],[147.324579,68.902565],[147.327163,68.930263],[147.353724,68.938583],[147.421886,68.933777],[147.483226,68.941658],[147.492011,68.976927],[147.463278,69.002869],[147.444313,69.072063],[147.488393,69.146529],[147.471082,69.220685],[147.392172,69.294634],[147.434133,69.35184],[147.596914,69.392354],[147.637531,69.439948],[147.598102,69.508212],[147.574693,69.55684],[147.5749,69.586295],[147.567665,69.599163],[147.537796,69.618826],[147.44452,69.642442],[147.428552,69.655749],[147.422764,69.668151],[147.435166,69.677246],[147.463175,69.694558],[147.473665,69.729594],[147.451031,69.772796],[147.466172,69.847158],[147.518986,69.952785],[147.518676,70.003841],[147.496248,70.023426],[147.45253,70.039291],[147.389691,70.06668],[147.354965,70.111328],[147.351657,70.143574],[147.38473,70.166725],[147.392998,70.194837],[147.364887,70.224603],[147.379046,70.271938],[147.489323,70.336327],[147.538158,70.379735],[147.525394,70.402163],[147.537899,70.425056],[147.575675,70.448517],[147.657272,70.480763],[147.782845,70.521846],[147.852815,70.559983],[147.867388,70.595226],[148.080398,70.634965],[148.491846,70.6792],[148.709197,70.729895],[148.732452,70.787049],[148.940501,70.837485],[149.333345,70.881281],[149.560618,70.92549],[149.62232,70.97019],[149.645678,71.001713],[149.661801,71.029928],[149.691463,71.045535],[149.847939,71.082638],[149.912845,71.110699],[149.892691,71.131317],[149.891761,71.15235],[149.910054,71.173899],[149.984262,71.209349],[150.09764,71.226557]],[[144.711818,62.767978],[145.008958,62.507374]]]}},{"type":"Feature","properties":{"name":"Irtysh","source":"Natural Earth 1:50m","ne_id":null},"geometry":{"type":"MultiLineString","coordinates":[[[74.993593,53.985594],[74.918352,54.002802],[74.903625,54.027607],[74.924399,54.06577],[74.871534,54.127885],[74.745133,54.213926],[74.66028,54.291415],[74.617079,54.360351],[74.558478,54.399729],[74.484374,54.409547],[74.399935,54.448511],[74.304953,54.516569],[74.125223,54.58641],[73.728244,54.693768]],[[73.72194,54.693768],[73.538902,54.805337],[73.434309,54.845025],[73.347079,54.849934],[73.317623,54.888123],[73.346045,54.95954],[73.307908,55.008839],[73.203315,55.036072],[73.157426,55.097412],[73.170345,55.19291],[73.127557,55.24221],[73.029269,55.24531],[72.993199,55.266213],[73.019554,55.304945],[73.162956,55.389023],[73.423508,55.51842],[73.661788,55.618414],[73.877796,55.688849],[74.081143,55.729131],[74.271829,55.739208],[74.468768,55.833026],[74.671856,56.010535],[74.709321,56.058026],[74.709321,56.091848],[74.675525,56.125644],[74.669892,56.148201],[74.689839,56.162412],[74.698831,56.203236],[74.681158,56.263698],[74.698056,56.286229],[74.729062,56.289045],[74.737485,56.317235],[74.721465,56.337104],[74.740327,56.370771],[74.74875,56.396119],[74.734694,56.41865],[74.705859,56.42653],[74.678367,56.477897],[74.680124,56.563369],[74.65594,56.606959],[74.60602,56.608664],[74.590466,56.627448],[74.609379,56.66326],[74.594961,56.693026],[74.576926,56.717288],[74.584729,56.73447],[74.596873,56.757466],[74.551553,56.844567],[74.510936,56.892574],[74.455952,56.922908],[74.386602,56.935569],[74.366448,56.949832],[74.333634,56.988046],[74.181188,57.016882],[74.117264,57.053004],[74.141862,57.096489],[74.119073,57.133154],[74.048897,57.163023],[73.965491,57.174133],[73.868856,57.166459],[73.769999,57.17943],[73.66892,57.213046],[73.635382,57.238961],[73.633108,57.258237],[73.599312,57.272318],[73.504279,57.265032],[73.441027,57.278313],[73.435962,57.305598],[73.371263,57.326837],[73.24693,57.341927],[73.180267,57.362442],[73.171069,57.38828],[73.113295,57.408021],[73.006841,57.421663],[72.948705,57.440809],[72.903437,57.458302],[72.866798,57.447011],[72.779568,57.442127],[72.625469,57.471583],[72.529041,57.50233],[72.492144,57.520262],[72.449873,57.53437],[72.413492,57.528582],[72.388584,57.535558],[72.334324,57.565324],[72.230971,57.579173],[71.950678,57.580672],[71.855387,57.607595],[71.820144,57.630281],[71.750794,57.642658],[71.60579,57.634829],[71.527138,57.645267],[71.514839,57.673922],[71.472568,57.698597],[71.400118,57.719216],[71.312371,57.721025],[71.209225,57.704023],[71.107526,57.710225],[71.007273,57.739628],[70.963865,57.763813],[70.920044,57.765415],[70.873328,57.760532],[70.7846,57.776939],[70.683366,57.821768],[70.615463,57.820967],[70.596963,57.822724],[70.569057,57.850784],[70.526062,57.858923],[70.467875,57.84709],[70.425087,57.861481],[70.397698,57.902047],[70.395631,57.927937],[70.373462,57.956979],[70.294397,57.977443],[70.22453,57.97703],[70.175645,57.954396],[70.136629,57.958685],[70.10738,57.989846],[70.053223,58.008733],[69.974158,58.01527],[69.877265,58.001421],[69.762647,57.967211],[69.648803,57.960132],[69.535632,57.980182],[69.479821,57.999819],[69.426698,58.017415],[69.315904,57.995168],[69.239268,58.000129],[69.19679,58.032375],[69.140256,58.032298],[69.069666,57.999923],[68.999954,57.999974],[68.931224,58.032427],[68.870556,58.036975],[68.818156,58.013565],[68.729686,58.03713],[68.605146,58.107668],[68.463656,58.149267],[68.225841,58.168388]],[[68.861358,61.124435],[69.010651,61.019247],[69.160874,60.975762],[69.361896,60.958967],[69.515788,60.885431],[69.622552,60.755258],[69.724354,60.682808],[69.801714,60.667589],[69.830188,60.650252],[69.836389,60.621313],[69.816442,60.603691],[69.782335,60.567104],[69.769209,60.511656],[69.801042,60.463183],[69.803936,60.419232],[69.777994,60.379777],[69.784919,60.354197],[69.82471,60.342415],[69.854372,60.310531],[69.873803,60.258596],[69.862434,60.239476],[69.820679,60.236634],[69.769675,60.206997],[69.729367,60.170152],[69.720634,60.125633],[69.737842,60.095195],[69.781457,60.077574],[69.854321,60.057523],[69.888479,60.005278],[69.865586,59.943111],[69.865328,59.90115],[69.888479,59.866449],[69.871115,59.834617],[69.820059,59.838699],[69.777219,59.816711],[69.757479,59.76643],[69.698929,59.744312],[69.601468,59.75041],[69.498167,59.727466],[69.334301,59.649538],[69.284278,59.576622],[69.222886,59.555254],[69.133486,59.561119],[69.07473,59.536211],[69.046721,59.480607],[68.99675,59.452289],[68.924817,59.451333],[68.910812,59.42968],[68.929002,59.401594],[68.905283,59.354181],[68.830972,59.292118],[68.799346,59.240002],[68.810405,59.197834],[68.842651,59.172874],[68.88177,59.160704],[68.88177,59.137579],[68.861978,59.119544],[68.854382,59.084094],[68.873088,59.056576],[68.855673,59.02123],[68.812369,59.013194],[68.800793,59.001619],[68.82105,58.966892],[68.812369,58.935059],[68.762242,58.925758],[68.748755,58.900384],[68.749737,58.877053],[68.736714,58.85894],[68.696717,58.853049],[68.689327,58.827107],[68.705347,58.787575],[68.67062,58.764424],[68.627264,58.770211],[68.568559,58.753468],[68.555847,58.678796],[68.564322,58.607095],[68.566492,58.561955],[68.549129,58.521441],[68.468617,58.512062],[68.399474,58.499685],[68.354515,58.469506],[68.330848,58.430749],[68.328367,58.383465],[68.283202,58.355198],[68.239639,58.342124],[68.219382,58.327655],[68.215092,58.290137],[68.232869,58.246316],[68.222224,58.166166]]]}},{"type":"Feature","properties":{"name":"Kamchatka","source":"Natural Earth 1:50m","ne_id":null},"geometry":{"type":"MultiLineString","coordinates":[[[157.63227,54.290304],[157.693558,54.131296],[157.748335,54.080782],[157.816858,54.085846],[157.883934,54.114785],[157.982326,54.194108],[158.124126,54.363607],[158.204638,54.433887],[158.271198,54.461482],[158.313882,54.505252],[158.332589,54.565145],[158.455992,54.642246],[158.683886,54.736608],[158.857002,54.866109],[158.975341,55.030827],[159.100811,55.14511],[159.233413,55.208982],[159.309584,55.260968],[159.329324,55.301173],[159.329221,55.327889],[159.30948,55.341118],[159.314545,55.352281],[159.336456,55.377912],[159.343018,55.390624],[159.360123,55.410313],[159.405392,55.433309],[159.488074,55.450673],[159.608067,55.462455],[159.664911,55.482712],[159.658503,55.511444],[159.677417,55.542347],[159.721755,55.575368],[159.740255,55.641565],[159.733175,55.740836],[159.697002,55.814552],[159.631786,55.862663],[159.632561,55.874988],[159.64114,55.88677],[159.652405,55.904753],[159.646928,55.94072],[159.692816,55.98635],[159.790071,56.041722],[159.867793,56.115748],[159.926187,56.208456],[160.022098,56.271088],[160.155734,56.303747],[160.246581,56.346122],[160.29464,56.39816],[160.68366,56.385887],[161.778477,56.270933],[161.905704,56.235224],[162.04368,56.224243],[162.175765,56.260597],[162.372963,56.264447],[162.461123,56.235482]]]}},{"type":"Feature","properties":{"name":"Kolyma","source":"Natural Earth 1:50m","ne_id":null},"geometry":{"type":"MultiLineString","coordinates":[[[145.215974,61.855863],[145.605614,61.899271],[145.801364,61.876792],[145.943165,61.83943],[146.096023,61.77964],[146.229555,61.696545],[146.343554,61.590091],[146.486232,61.50945],[146.657488,61.454595],[146.812052,61.453975],[146.949925,61.507615],[147.052296,61.522059],[147.119165,61.497306],[147.225257,61.520018],[147.370571,61.590246],[147.432893,61.707758],[147.412377,61.872503],[147.354603,61.984847],[147.259622,62.044844],[147.255281,62.14029],[147.34158,62.27129],[147.464312,62.331209],[147.623579,62.320124],[147.71794,62.298523],[147.747499,62.266484],[147.816125,62.243281],[147.923664,62.229096],[148.02495,62.179564],[148.119879,62.094763],[148.243799,62.074713],[148.396658,62.119361],[148.523782,62.106752],[148.625171,62.036782],[148.662585,61.97968],[148.622484,61.913224],[148.726871,61.785015],[148.747179,61.729411],[148.718137,61.703676],[148.721703,61.680215],[148.757773,61.659027],[148.859472,61.665745],[149.026697,61.700317],[149.199865,61.698508],[149.378975,61.660319],[149.500984,61.674324],[149.565889,61.74065],[149.600874,61.802249],[149.605938,61.85917],[149.656271,61.897359],[149.751873,61.916789],[149.809905,61.943196],[149.830369,61.976476],[149.91517,62.020452],[150.064308,62.075023],[150.189727,62.092076],[150.291581,62.07156],[150.428679,62.087787],[150.601175,62.140703],[150.713519,62.196927],[150.765713,62.25651],[150.800077,62.34051],[150.81651,62.44885],[150.80416,62.532979],[150.763129,62.592821],[150.776616,62.639019],[150.844726,62.671575],[151.055721,62.664909],[151.409704,62.618969],[151.618374,62.55936],[151.681832,62.486005],[151.741674,62.453501],[151.797794,62.461847],[151.86456,62.499183],[151.942023,62.565484],[151.991994,62.556079],[152.014525,62.470916],[152.084392,62.427198],[152.201491,62.424975],[152.270995,62.435311],[152.292803,62.4581],[152.292441,62.488124],[152.269807,62.525331],[152.326392,62.60791],[152.462095,62.735809],[152.505348,62.823194],[152.456152,62.869961],[152.461216,62.928872],[152.520541,62.999876],[152.543382,63.063024],[152.529533,63.118422],[152.543175,63.16214],[152.584206,63.194205],[152.597539,63.243995],[152.583276,63.311536],[152.649939,63.361404],[152.797526,63.393599],[152.908114,63.456075],[152.981856,63.548835],[153.158125,63.669964],[153.436971,63.819464],[153.66445,63.901681],[153.840667,63.916512],[154.057346,63.960127],[154.314592,64.032526],[154.467915,64.088104],[154.517422,64.126913],[154.542019,64.168435],[154.541916,64.212722],[154.497836,64.224323],[154.409883,64.203291],[154.371591,64.2267],[154.382856,64.294551],[154.317434,64.354418],[154.175117,64.406353],[154.079567,64.511902],[154.03063,64.671092],[153.835086,64.734292],[153.492781,64.701452],[153.221687,64.716489],[153.021802,64.77938],[152.818094,64.813047],[152.610561,64.817439],[152.486899,64.839298],[152.447109,64.878572],[152.327271,64.925443],[152.127231,64.97991],[151.963831,65.042438],[151.837017,65.113028],[151.768235,65.164007],[151.75759,65.195375],[151.70333,65.21974],[151.605661,65.237104],[151.549231,65.264957],[151.534141,65.303249],[151.497451,65.331103],[151.439056,65.348518],[151.343145,65.415387],[151.209716,65.531763],[151.145328,65.602611],[151.150082,65.627881],[151.059338,65.689634],[150.872993,65.787871],[150.767935,65.886625],[150.74406,65.985947],[150.754757,66.04031],[150.776513,66.061084],[150.784936,66.088059],[150.773154,66.128522],[150.798062,66.149296],[150.943996,66.139064],[151.03691,66.162112],[151.08006,66.222935],[151.10533,66.234769],[151.147963,66.234975],[151.254468,66.211049],[151.374358,66.216294],[151.509026,66.250427],[151.595636,66.255569],[151.634393,66.231668],[151.65372,66.241487],[151.653617,66.284998],[151.692374,66.331972],[151.769786,66.38246],[151.798259,66.420804],[151.777692,66.447056],[151.920784,66.503435],[152.400445,66.646527],[152.439409,66.673295],[152.434241,66.701872],[152.385149,66.732154],[152.392073,66.750913],[152.455222,66.758199],[152.537956,66.806413],[152.640378,66.895607],[152.768329,66.964182],[152.921808,67.012241],[153.007229,67.060558],[153.024593,67.109082],[153.179984,67.15094],[153.473351,67.18608],[153.625228,67.213908],[153.635408,67.234424],[153.600372,67.278374],[153.520066,67.345709],[153.534742,67.40741],[153.6444,67.463428],[154.087784,67.534276],[154.86479,67.619904],[155.353753,67.646466],[155.554774,67.613961],[155.803751,67.610447],[156.100891,67.635975],[156.216801,67.657214],[156.246773,67.671219],[156.250391,67.692148],[156.281862,67.717056],[156.347646,67.735762],[156.354105,67.753022],[156.336225,67.775192],[156.199954,67.81922],[156.132103,67.8741],[156.132413,67.918387],[156.145901,67.943863],[156.25592,67.960813],[156.502003,67.937094],[156.667058,67.939419],[156.793355,67.981949],[157.432231,68.093027],[157.653871,68.175012],[157.671338,68.264929],[157.7719,68.359936],[157.955661,68.460008],[158.01943,68.545429],[157.963103,68.616122],[158.014831,68.656481],[158.174563,68.666403],[158.318223,68.704592],[158.446071,68.771048],[158.549113,68.788515],[158.666626,68.741127],[159.059315,68.774355],[159.156828,68.782546],[159.189539,68.767999],[159.192278,68.735469],[159.178636,68.693508],[159.214602,68.669762],[159.395367,68.631909],[160.126898,68.540261],[160.559017,68.511942],[160.679474,68.542225],[160.856053,68.538349]]]}},{"type":"Feature","properties":{"name":"Lena","source":"Natural Earth 1:50m","ne_id":null},"geometry":{"type":"MultiLineString","coordinates":[[[120.648378,60.403471],[120.343435,60.39621],[120.184272,60.349702],[120.06924,60.261593],[119.87411,60.229115],[119.598881,60.252317],[119.354762,60.191417],[119.141751,60.046464],[118.958558,59.965591],[118.805286,59.948796],[118.677542,59.917015],[118.575326,59.870248],[118.510214,59.823816],[118.482102,59.777799],[118.419573,59.744777],[118.322525,59.724804],[117.998307,59.805342],[117.446713,59.986468],[117.129419,60.134263],[117.04622,60.248829],[116.964262,60.331046],[116.883543,60.381018],[116.669189,60.43905],[116.321407,60.505248],[116.030933,60.597697],[115.797873,60.716501],[115.5028,60.77474],[115.145716,60.77257],[114.892553,60.745078],[114.743208,60.692265],[114.549422,60.566794],[114.310987,60.368667],[114.137354,60.260095],[114.028523,60.240949],[113.822541,60.124806],[113.519407,59.911615],[113.239631,59.779297],[112.983006,59.727776],[112.835883,59.673981],[112.798108,59.61786],[112.745191,59.578483],[112.642768,59.544531],[112.543394,59.363302],[112.393688,59.273721],[112.160524,59.215378],[112.009835,59.196645],[111.941726,59.217523],[111.846124,59.186775],[111.723031,59.104403],[111.548571,59.018956],[111.322642,58.93046],[111.201823,58.847003],[111.186216,58.768558],[111.116556,58.738792],[110.992843,58.757706],[110.948608,58.746337],[110.928971,58.710319],[110.805361,58.659004],[110.560208,58.66244],[110.281775,58.644638],[109.970166,58.605622],[109.797671,58.539166],[109.764391,58.445218],[109.694318,58.358583],[109.587347,58.27926],[109.498257,58.231278],[109.42684,58.214586],[109.340541,58.224612],[109.239152,58.261354],[109.153886,58.274531],[109.084742,58.264144],[108.940462,58.210452],[108.721147,58.113404],[108.605599,58.043538],[108.593816,58.000853],[108.552682,57.971604],[108.482299,57.955791],[108.408608,57.906905],[108.33161,57.824998],[108.228877,57.784897],[108.100306,57.786654],[108.033747,57.758904],[108.029303,57.701646],[107.957008,57.658677],[107.904401,57.635009],[107.894169,57.610231],[107.918044,57.570491],[107.871793,57.522562],[107.69723,57.438303],[107.619199,57.40784],[107.593102,57.386472],[107.584369,57.357016],[107.564629,57.34296],[107.518637,57.345854],[107.487424,57.329007],[107.470991,57.292421],[107.41456,57.270613],[107.318132,57.263585],[107.250746,57.276091],[107.212609,57.308182],[107.148633,57.325597],[107.058923,57.328336],[106.98854,57.309861],[106.937483,57.270122],[106.918053,57.232088],[106.930145,57.19576],[106.912472,57.14597],[106.864826,57.082718],[106.746746,57.042565],[106.558127,57.025512],[106.425163,57.028251],[106.34801,57.050782],[106.256181,57.011042],[106.149831,56.908981],[105.985655,56.832965],[105.763705,56.782943],[105.672444,56.742402],[105.711822,56.711319],[105.831401,56.696436],[106.031285,56.697676],[106.172879,56.671115],[106.256285,56.616803],[106.292148,56.559959],[106.280573,56.500583],[106.250083,56.450818],[106.200681,56.410562],[106.058002,56.3655],[105.822048,56.315529],[105.694665,56.266101],[105.675958,56.217163],[105.718126,56.151741],[105.821169,56.069834],[105.85202,55.975653],[105.810575,55.869148],[105.730942,55.755098],[105.613223,55.6334],[105.519585,55.49036],[105.450029,55.325874],[105.331276,55.196838],[105.163225,55.103149],[105.076098,55.008374],[105.069897,54.912514],[105.107931,54.849831],[105.190303,54.820375],[105.234435,54.753506],[105.240533,54.649171],[105.223893,54.549952],[105.184567,54.455746],[105.220586,54.383916],[105.332,54.33441],[105.45716,54.237672],[105.665416,54.021664],[105.806286,54.006316],[105.872949,53.972959],[105.912533,53.916477],[105.973511,53.878262],[106.05609,53.858263],[106.304757,53.857281],[106.927148,53.884334],[106.996498,53.849788],[107.052825,53.844827],[107.119178,53.857927],[107.158658,53.89361],[107.171371,53.951849],[107.234003,53.99934],[107.346554,54.03603],[107.456005,54.104501],[107.562148,54.204754],[107.657129,54.264595],[107.78291,54.293792],[108.021241,54.246457],[108.106611,54.199948],[108.11829,54.138401],[108.088162,54.081764],[107.980107,54.004146]],[[126.689663,72.294399],[126.896885,72.050228],[127.019668,71.945531],[127.127155,71.898971],[127.167928,71.845279],[127.141935,71.784456],[127.162295,71.683222],[127.228958,71.541525],[127.258207,71.41174],[127.250042,71.293866],[127.316911,71.183924],[127.458815,71.081966],[127.506564,70.998767],[127.460262,70.934379],[127.471837,70.879059],[127.414218,70.741832],[127.090827,70.60613],[126.789192,70.540604],[126.509415,70.545178],[126.231086,70.527323],[125.954307,70.487016],[125.800621,70.449344],[125.769874,70.414204],[125.833074,70.367281],[125.990067,70.308577],[126.018903,70.234628],[125.919374,70.145331],[125.77344,70.068928],[125.484775,69.973662],[125.201175,69.903511],[125.078702,69.825506],[125.022788,69.716262],[124.901555,69.580353],[124.721979,69.400312],[124.621572,69.33644],[124.251052,69.181256],[124.093749,69.096506],[124.026053,69.030412],[123.985228,68.926439],[123.971172,68.784587],[123.927144,68.633873],[123.853247,68.474348],[123.773975,68.349265],[123.689329,68.258676],[123.534506,68.17279],[123.309507,68.091606],[123.150499,67.929187],[123.057378,67.68543],[123.09474,67.454591],[123.26274,67.236568],[123.397874,66.997435],[123.500297,66.737167],[123.587837,66.580949],[123.696874,66.502659],[123.738008,66.461396],[123.876088,66.197975],[124.0275,66.022069],[124.210951,65.873292],[124.285262,65.733094],[124.250535,65.601526],[124.267898,65.504219],[124.337352,65.4412],[124.373835,65.378594],[124.377246,65.316427],[124.407993,65.251625],[124.465974,65.184187],[124.59346,65.097526],[124.79045,64.991589],[124.954316,64.931179],[125.085058,64.916296],[125.220088,64.878624],[125.359305,64.818111],[125.453666,64.746953],[125.503068,64.665097],[125.743519,64.575387],[126.175017,64.477822],[126.423477,64.402891],[126.506211,64.377931],[126.85265,64.224452],[127.2919,63.965243],[127.585525,63.84339],[127.879978,63.772464],[128.077537,63.697456],[128.178254,63.618339],[128.291425,63.561469],[128.416896,63.526769],[128.640655,63.515762],[128.962599,63.528371],[129.187598,63.523461],[129.379628,63.489872],[129.585817,63.305439],[129.637338,63.199347],[129.602922,63.110153],[129.6223,63.033931],[129.695371,62.970756],[129.763894,62.858024],[129.827662,62.69576],[129.909415,62.569359],[130.008943,62.478822],[130.051318,62.396398],[130.036539,62.322139],[129.997368,62.269895],[129.933806,62.239715],[129.892465,62.160082],[129.873241,62.030994],[129.788492,61.893483],[129.63832,61.747601],[129.476263,61.63076],[129.215607,61.499192],[128.751449,61.323131],[128.480768,61.266028],[128.248999,61.26918],[127.893103,61.227736],[127.413029,61.141695],[127.047264,61.103144],[126.795599,61.112084],[126.553754,61.101335],[126.321727,61.070846],[126.097451,61.014209],[125.88103,60.931449],[125.578309,60.856958],[124.994882,60.757635],[124.89277,60.710041],[124.730299,60.687821],[124.473261,60.675056],[124.278854,60.645601],[124.147079,60.59935],[123.551973,60.575993],[122.296856,60.575373],[121.653381,60.597542],[121.424764,60.6425],[121.161835,60.622347],[120.864489,60.53708],[120.700364,60.472537],[120.653855,60.406701]]]}},{"type":"Feature","properties":{"name":"Neva","source":"Natural Earth 1:50m","ne_id":null},"geometry":{"type":"MultiLineString","coordinates":[[[31.042788,59.950992],[31.013539,59.932569],[30.981551,59.882237],[30.905742,59.843169],[30.795051,59.810923],[30.652217,59.835469],[30.477448,59.916886],[30.34743,59.947246],[30.219685,59.91624],[30.156847,59.904277]]]}},{"type":"Feature","properties":{"name":"Ob","source":"Natural Earth 1:50m","ne_id":null},"geometry":{"type":"MultiLineString","coordinates":[[[85.056235,52.433596],[84.58908,52.421865],[84.347338,52.392565],[84.175359,52.34187],[84.003276,52.331586],[83.831193,52.361765],[83.728099,52.414269],[83.694096,52.489019],[83.682572,52.592191],[83.698902,52.789491],[83.657509,52.961496],[83.657509,53.040329],[83.685104,53.083323],[83.817189,53.10942],[83.860236,53.174713],[83.848557,53.199337],[83.837601,53.353281],[83.711924,53.418807],[83.492713,53.42878],[83.331534,53.456712],[83.228491,53.502652],[83.128084,53.505055],[83.030209,53.463869],[82.896935,53.437359],[82.72816,53.425421],[82.580624,53.445937],[82.45443,53.498854],[82.387561,53.545104],[82.380016,53.584688],[82.32989,53.630835],[82.236976,53.683649],[82.113624,53.717962],[81.959731,53.733723],[81.867076,53.757546],[81.835553,53.78943],[81.727033,53.799611],[81.541514,53.788138],[81.420074,53.80824],[81.334085,53.885626]],[[70.353773,61.30122],[70.784341,61.304062],[70.978955,61.297551],[71.080964,61.282616],[71.154448,61.250887],[71.199406,61.202363],[71.257491,61.195386],[71.328908,61.230061],[71.447092,61.252799],[71.694673,61.269025],[72.044419,61.254969],[72.222806,61.264452],[72.34652,61.292848],[72.465996,61.288404],[72.581338,61.251197],[72.678386,61.24267],[72.757037,61.262824],[72.906692,61.263444],[73.237422,61.235126],[73.566239,61.19642],[73.710364,61.195903],[73.779301,61.22063],[73.876607,61.214352],[74.002181,61.177041],[74.117574,61.174638],[74.222891,61.207143],[74.313583,61.200657],[74.384535,61.168411],[74.429183,61.168411],[74.449027,61.189082],[74.514553,61.213163],[74.645294,61.215437],[74.750094,61.202466],[74.868433,61.160195],[75.333366,61.12366],[75.534697,61.082396],[75.627405,61.024286],[75.713653,61.010126],[75.793545,61.03997],[75.887079,61.049762],[75.994359,61.03953],[76.134557,60.999739],[76.307673,60.93039],[76.435056,60.905482],[76.516601,60.925119],[76.626207,60.89649],[76.76377,60.819595],[76.960192,60.745491],[77.21537,60.674255],[77.399183,60.648831],[77.511528,60.669243],[77.602323,60.662086],[77.671673,60.627411],[77.713841,60.585966],[77.728827,60.537856],[77.807168,60.48313],[77.948658,60.42179],[78.110819,60.395694],[78.293444,60.404737],[78.340934,60.371354],[78.345327,60.331667],[78.388528,60.304433],[78.437207,60.291772],[78.481132,60.243662],[78.562988,60.196326],[78.682877,60.149869],[78.785352,60.132531],[78.835891,60.140515],[78.871393,60.116434],[78.875992,60.084369],[78.90922,60.064887],[78.96193,60.054552],[78.979138,60.019024],[78.958623,59.980835],[78.951801,59.933345],[78.97919,59.883994],[79.038514,59.841206],[79.129878,59.80498],[79.165845,59.765913],[79.146518,59.723952],[79.148275,59.689018],[79.182692,59.647161],[79.282634,59.557631],[79.387589,59.516988],[79.530939,59.495335],[79.623285,59.460402],[79.664729,59.412084],[79.779244,59.401697],[79.96683,59.429189],[80.093179,59.423608],[80.158188,59.384954],[80.171572,59.349453],[80.133228,59.317155],[80.152038,59.288991],[80.227899,59.265013],[80.29513,59.272558],[80.353731,59.311625],[80.411144,59.330177],[80.467264,59.328291],[80.502301,59.299326],[80.51615,59.243309],[80.616196,59.179541],[80.802438,59.10802],[80.973125,59.091432],[81.128258,59.129776],[81.256467,59.117839],[81.357753,59.055672],[81.410669,59.004047],[81.415217,58.963016],[81.444362,58.944723],[81.478314,58.936506],[81.495935,58.913639],[81.505289,58.885967],[81.534848,58.848243],[81.568127,58.83088],[81.573398,58.797393],[81.541669,58.745226],[81.554433,58.718199],[81.647761,58.700991],[81.704243,58.707476],[81.735404,58.72347],[81.77535,58.735847],[81.858342,58.701921],[81.902474,58.660089],[81.907745,58.610325],[81.964641,58.585107],[82.073058,58.584383],[82.172173,58.549243],[82.261884,58.479687],[82.338675,58.439017],[82.402547,58.427287],[82.434483,58.403903],[82.434586,58.368892],[82.462595,58.359487],[82.518612,58.375533],[82.574836,58.363156],[82.631267,58.322332],[82.734258,58.305434],[82.883809,58.312539],[82.928096,58.283213],[82.934194,58.240218],[82.960962,58.193399],[83.030932,58.150404],[83.097181,58.128183],[83.15971,58.126737],[83.22353,58.057438],[83.288539,57.920341],[83.350706,57.826496],[83.410031,57.776034],[83.549764,57.742212],[83.700349,57.730482],[83.777347,57.699166],[83.816466,57.641185],[83.832537,57.579561],[83.907054,57.506439],[83.942918,57.441404],[83.940127,57.384456],[83.958317,57.339394],[83.997385,57.306166],[84.104562,57.277434],[84.279745,57.253146],[84.343514,57.210462],[84.351265,57.163178],[84.375605,57.13703],[84.406094,57.10915],[84.413897,57.067266],[84.406766,57.010836],[84.436324,56.910687],[84.401391,56.792451],[84.30796,56.690338],[84.144456,56.564971],[84.063944,56.457846],[84.066321,56.368963],[84.053971,56.313927],[84.026789,56.292817],[84.016867,56.263905],[84.024205,56.227214],[83.993561,56.179698],[83.925038,56.121355],[83.886746,56.037949],[83.878787,55.929455],[83.81936,55.832768],[83.708462,55.74776],[83.650223,55.679909],[83.644745,55.629215],[83.535604,55.561053],[83.323007,55.475477],[83.155524,55.436461],[83.033258,55.444084],[82.944064,55.433103],[82.887944,55.403544],[82.868978,55.34024],[82.887272,55.243192],[82.87673,55.172912],[82.837456,55.129348],[82.879055,55.06527],[83.001528,54.980675],[83.053411,54.915072],[83.025351,54.845206]]]}},{"type":"Feature","properties":{"name":"Ob","source":"Natural Earth 1:50m","ne_id":null},"geometry":{"type":"MultiLineString","coordinates":[[[68.856914,61.124021],[69.010496,61.197712],[69.103979,61.213422],[69.188625,61.195593],[69.290014,61.214998],[69.408146,61.271583],[69.578007,61.28365],[69.799595,61.251249],[70.021235,61.251559],[70.353773,61.30122]]]}},{"type":"Feature","properties":{"name":"Ob","source":"Natural Earth 1:50m","ne_id":null},"geometry":{"type":"MultiLineString","coordinates":[[[68.856914,61.124021],[68.786117,61.089346],[68.588816,61.09547],[68.464586,61.12521],[68.347591,61.180659],[68.308627,61.255848],[68.347694,61.350881],[68.35312,61.415993],[68.324905,61.451236],[68.13365,61.519269],[67.77946,61.620115],[67.585777,61.711582],[67.552704,61.793645],[67.454777,61.918701],[67.291996,62.08665],[67.042658,62.199925],[66.706761,62.258448],[66.5107,62.318393],[66.45458,62.379759],[66.390036,62.419549],[66.28074,62.446835],[65.988252,62.482078],[65.679743,62.622095],[65.257547,62.878643],[65.163186,62.996362],[65.140138,63.072481],[65.149233,63.130927],[65.211348,63.206013],[65.334958,63.296085],[65.472314,63.343472],[65.527039,63.394994],[65.523991,63.45636],[65.557063,63.496228],[65.700621,63.531781],[65.767387,63.583871],[65.757465,63.652497],[65.732247,63.707378],[65.709095,63.733965],[65.721498,63.768769],[65.787902,63.792231],[65.805059,63.809387],[65.795964,63.84277],[65.781339,63.87822],[65.802733,63.899407],[65.80511,63.950309],[65.788677,64.03095],[65.806144,64.075676],[65.857614,64.084512],[65.885105,64.101411],[65.888723,64.126474],[65.929547,64.136344],[66.007682,64.131073],[66.030626,64.154431],[65.998484,64.206365],[65.95337,64.242177],[65.895389,64.261918],[65.88526,64.289358],[65.922984,64.324601],[65.919935,64.370128],[65.876217,64.425887],[65.799633,64.481542],[65.690182,64.537095],[65.685066,64.587402],[65.705633,64.614816],[65.688322,64.659258],[65.554273,64.709229],[65.501253,64.755712],[65.529262,64.798629],[65.532931,64.841934],[65.512363,64.885497],[65.542801,64.930456],[65.565125,64.981538],[65.523991,65.015825],[65.40808,65.022285],[65.300645,65.052748],[65.256927,65.098792],[65.277494,65.175686],[65.362243,65.283406],[65.455261,65.361928],[65.556547,65.41115],[65.606259,65.467684],[65.604502,65.531504],[65.624656,65.6038],[65.666721,65.684673],[65.735657,65.764203],[65.831465,65.842441],[65.876579,65.932772],[65.871101,66.035194],[65.829708,66.094467],[65.821337,66.136609],[65.839268,66.157177],[65.882987,66.196477],[65.957452,66.220403],[66.096514,66.278435],[66.29986,66.411399],[66.451376,66.570872],[66.663301,66.626528],[66.935636,66.578417],[67.152832,66.583171],[67.314992,66.640791]],[[67.314992,66.640791],[67.572961,66.628879],[67.926945,66.547385],[68.197471,66.537619],[68.384643,66.599553],[68.496626,66.655932],[68.533316,66.706755],[68.655066,66.751507]],[[67.314992,66.640791],[67.560404,66.758871],[67.69223,66.782901],[67.869377,66.773392],[68.00694,66.783805],[68.104815,66.814139],[68.260774,66.807499],[68.655066,66.751507]],[[68.655066,66.751507],[68.906678,66.799127],[69.013493,66.788353]]]}},{"type":"Feature","properties":{"name":"Pechora","source":"Natural Earth 1:50m","ne_id":null},"geometry":{"type":"MultiLineString","coordinates":[[[59.286955,62.057504],[59.175231,62.022003],[59.076012,62.021899],[58.889873,62.057091],[58.777426,61.996009],[58.639139,62.008153],[58.437705,62.073214],[58.23379,62.066574],[58.027497,61.988284],[57.90921,61.912733],[57.878927,61.839921],[57.827819,61.806357],[57.755989,61.812093],[57.61729,61.783309],[57.411928,61.720109],[57.228683,61.698818],[57.009316,61.727783],[56.961929,61.763052],[56.882037,61.796538],[56.857388,61.802559],[56.841936,61.815607],[56.850618,61.845786],[56.836407,61.902837],[56.795996,61.984279],[56.729282,62.049443],[56.666443,62.082464],[56.640915,62.100241],[56.631148,62.129955],[56.630166,62.159772],[56.643861,62.177549],[56.699516,62.233928],[56.726233,62.343792],[56.706493,62.489468],[56.625412,62.595327],[56.482992,62.661421],[56.360312,62.701212],[56.257373,62.714699],[56.212828,62.753328],[56.226574,62.817096],[56.200942,62.884198],[56.10317,62.989851],[55.936255,63.160176],[55.941061,63.190562],[55.955892,63.209062],[55.992893,63.220172],[56.056145,63.195781],[56.173605,63.22242],[56.291531,63.289755],[56.370492,63.305309],[56.418655,63.312725],[56.440824,63.349725],[56.444545,63.383057],[56.470435,63.416362],[56.518597,63.427472],[56.540818,63.442278],[56.529707,63.464499],[56.477876,63.501525],[56.466766,63.538551],[56.504386,63.566353],[56.555959,63.589194],[56.639055,63.660972],[56.711712,63.762982],[56.943997,63.839308],[57.336015,63.889951],[57.469547,63.912327],[57.506547,63.941937],[57.511353,63.986431],[57.524996,64.017126],[57.5837,64.051775],[57.602769,64.089938],[57.577344,64.123451],[57.581064,64.160477],[57.558844,64.197477],[57.564993,64.231403],[57.579152,64.258094],[57.623801,64.289565],[57.63827,64.32517],[57.672687,64.339587],[57.715785,64.372841],[57.729583,64.396741],[57.772681,64.411056],[57.782809,64.442914],[57.786685,64.474049],[57.793041,64.49596],[57.80534,64.534718],[57.807252,64.579004],[57.827716,64.6513],[57.879289,64.74039],[57.843994,64.805709],[57.721934,64.84736],[57.608143,64.907976],[57.50262,64.987558],[57.400352,65.029416],[57.301237,65.033653],[57.256278,65.059957],[57.26527,65.108352],[57.202535,65.137368],[57.067969,65.146928],[57.016086,65.241341],[57.046989,65.420503],[56.967407,65.567678],[56.777444,65.682813],[56.744216,65.78906],[56.776514,65.846834],[56.833875,65.911791],[56.837389,65.970754],[56.805608,66.002587],[56.73569,66.032507],[56.621175,66.121597],[56.491157,66.257351],[56.283314,66.325409],[55.997544,66.325668],[55.762519,66.301586],[55.411843,66.199861],[55.263945,66.141855],[55.170927,66.064702],[55.132894,65.96848],[55.092689,65.909698],[55.029024,65.87784],[54.836322,65.752008],[54.710697,65.702166],[54.58781,65.68643],[54.455829,65.624522],[54.314649,65.516415],[54.103189,65.457917],[53.821552,65.449003],[53.588233,65.416653],[53.403335,65.360894],[53.193529,65.332705],[52.958814,65.332137],[52.669891,65.357251],[52.326657,65.408153],[52.153437,65.466392],[52.150026,65.532021],[52.178655,65.629457],[52.239323,65.758725],[52.348877,65.868848],[52.507421,65.959695],[52.567055,66.019743],[52.527885,66.048992],[52.507369,66.110952],[52.505612,66.205623],[52.486853,66.286549],[52.451197,66.35378],[52.454297,66.404164],[52.496362,66.437702],[52.504113,66.474392],[52.477552,66.514183],[52.470834,66.555705],[52.483753,66.598958],[52.4513,66.650532],[52.373372,66.710425],[52.353735,66.831425],[52.392492,67.013584],[52.380503,67.114818],[52.286659,67.145359],[52.168682,67.259719],[52.131526,67.318062],[52.13597,67.358473],[52.17018,67.395835],[52.234156,67.4302],[52.230848,67.455935],[52.160155,67.473194],[52.125842,67.506939],[52.127909,67.557169],[52.246971,67.614064],[52.483029,67.677678],[52.627465,67.699124]],[[52.627465,67.699124],[52.743324,67.754702],[53.106712,67.864256]],[[52.627465,67.699124],[52.680278,67.678402],[52.812673,67.673234],[53.02465,67.683621],[53.184175,67.733747],[53.291352,67.823612],[53.513819,67.910868],[53.85168,67.995488],[54.067119,68.080651],[54.206645,68.209248],[54.232897,68.266299]],[[53.106712,67.864256],[53.214716,67.932701],[53.084595,67.965206],[53.027286,68.010733],[53.042789,68.069179],[53.09338,68.118065],[53.179059,68.157339],[53.226602,68.195838],[53.24226,68.241804],[53.261897,68.270381]],[[53.91364,68.231184],[53.749154,68.175115],[53.672311,68.125248],[53.621048,68.056518],[53.494544,67.986652],[53.19203,67.880146],[53.106712,67.864256]]]}},{"type":"Feature","properties":{"name":"Sukhona","source":"Natural Earth 1:50m","ne_id":null},"geometry":{"type":"MultiLineString","coordinates":[[[39.798119,59.525204],[40.099031,59.475802],[40.215406,59.446501],[40.247549,59.420869],[40.26238,59.379632],[40.260003,59.322684],[40.349713,59.302298],[40.531614,59.318473],[40.684473,59.352295],[40.80829,59.403816],[40.917224,59.418337],[41.011275,59.395858],[41.155142,59.390587],[41.348722,59.402524],[41.558425,59.430145],[41.784251,59.473399],[41.900161,59.511872],[41.906259,59.545642],[41.954266,59.584348],[42.044183,59.628014],[42.168827,59.656566],[42.3283,59.670053],[42.461884,59.699974],[42.569681,59.746276],[42.652622,59.81622],[42.710706,59.90978],[42.852609,59.981714],[43.191297,60.057213],[43.730799,60.190176],[44.032486,60.292108],[44.276295,60.407321],[44.491579,60.474345],[44.678545,60.493181],[44.835227,60.526151],[44.961731,60.573202],[45.156138,60.599609],[45.418448,60.605397],[45.60624,60.632191],[45.719515,60.679992],[45.830567,60.697174],[45.939398,60.68379],[46.051071,60.698569],[46.165689,60.741564],[46.252195,60.759599],[46.339942,60.74916]],[[39.053462,59.868439],[38.928095,59.938874],[38.656173,59.929882]]]}},{"type":"Feature","properties":{"name":"Severnaya Dvina","source":"Natural Earth 1:50m","ne_id":null},"geometry":{"type":"MultiLineString","coordinates":[[[46.339942,60.74916],[46.455749,60.843212],[46.512024,60.910313],[46.547371,60.981756],[46.564889,61.043664],[46.564579,61.096039],[46.579772,61.129809],[46.610468,61.145054],[46.617134,61.186317],[46.591089,61.287319],[46.254521,61.472165],[45.945134,61.59469],[45.550739,61.716543],[45.291427,61.839637],[45.1673,61.964048],[45.091181,62.060657],[45.063172,62.129541],[44.974651,62.206022],[44.825512,62.2901],[44.561963,62.346944],[44.183898,62.376503],[43.907119,62.44177],[43.731522,62.542798],[43.403687,62.670128],[42.923613,62.823866],[42.657376,62.934453],[42.605183,63.001917],[42.487257,63.044886],[42.211925,63.072585],[42.077256,63.140797],[42.040721,63.194954],[42.057361,63.257767],[42.015658,63.328848],[41.915612,63.408275],[41.872101,63.483154],[41.885123,63.553485],[41.805748,63.60542],[41.633873,63.638958],[41.514707,63.681023],[41.448147,63.731588],[41.469955,63.784608],[41.580129,63.840031],[41.632736,63.879951],[41.627671,63.904317],[41.658057,63.944159],[41.723686,63.999453],[41.751591,64.05206],[41.74167,64.101979],[41.77681,64.136861],[41.857115,64.156704],[41.883573,64.192465],[41.856185,64.244193],[41.654026,64.295042],[41.276995,64.345065],[40.948953,64.41643],[40.530477,64.55544],[40.450224,64.629854],[40.407797,64.754885]]]}},{"type":"Feature","properties":{"name":"Ural","source":"Natural Earth 1:50m","ne_id":null},"geometry":{"type":"MultiLineString","coordinates":[[[58.630871,51.695088],[58.628494,51.618813],[58.659293,51.561039],[58.722545,51.49634],[58.750812,51.424846],[58.744094,51.346556],[58.712623,51.287361],[58.656503,51.24726],[58.527105,51.201268],[58.324637,51.149333],[58.209295,51.10639],[58.181183,51.072438],[58.045171,51.068873],[57.801258,51.095796],[57.535693,51.164526],[57.248475,51.275165],[56.906429,51.3533],[56.509657,51.398982],[56.223731,51.472259],[56.048755,51.573131],[55.877086,51.647545],[55.708724,51.695553],[55.456181,51.735189],[55.119458,51.766453],[54.649616,51.725809],[54.046552,51.613206],[53.667195,51.55998],[53.511442,51.566129],[53.40566,51.550807],[53.34985,51.513962],[53.227377,51.484971],[53.038344,51.463732],[52.902642,51.466936],[52.820477,51.494583],[52.728131,51.498149],[52.625708,51.477633],[52.553723,51.441796],[52.512072,51.390559],[52.427942,51.3826],[52.301335,51.417792],[52.225061,51.420893],[52.199222,51.391928],[52.128219,51.381929],[52.01205,51.39092],[51.941357,51.378053],[51.916139,51.343326],[51.768758,51.285604],[51.499213,51.204885],[51.395292,51.148403],[51.364235,51.075281],[51.316434,50.998283],[51.221039,50.903767],[51.18254,50.825994],[51.200834,50.764964],[51.189207,50.708481],[51.147555,50.656598],[51.13598,50.594845],[51.15448,50.52317],[51.149674,50.478366],[51.121459,50.460331],[51.116033,50.436302],[51.133293,50.406174],[51.131381,50.364885],[51.110193,50.31233],[51.156082,50.253005],[51.26884,50.186808],[51.329095,50.122161],[51.340567,50.027438],[51.319638,49.955272],[51.347078,49.912587],[51.416014,49.875302],[51.470895,49.801767],[51.511926,49.691954],[51.557711,49.630718],[51.59373,49.613845],[51.608406,49.584622],[51.635743,49.546382],[51.707366,49.488013],[51.739095,49.449023],[51.743695,49.419774],[51.76049,49.404478],[51.827772,49.374351],[51.847823,49.352285],[51.846996,49.335749],[51.858571,49.323346],[51.883893,49.314148],[51.915726,49.27508],[51.947765,49.205627],[51.936293,49.137518],[51.881412,49.070778],[51.84958,49.000524],[51.841001,48.92673],[51.853869,48.895052],[51.880327,48.868594],[51.875986,48.815393],[51.803588,48.623079],[51.775579,48.585639],[51.730104,48.56024],[51.666955,48.546908],[51.624994,48.514636],[51.606339,48.468721],[51.602515,48.443038],[51.610473,48.42428],[51.634916,48.404539],[51.633262,48.385781],[51.60236,48.370407],[51.588665,48.318188],[51.592076,48.229149],[51.583549,48.181194],[51.569442,48.167448],[51.581999,48.11944],[51.640394,48.016398],[51.654036,47.881858],[51.62303,47.715796],[51.67357,47.578595],[51.805551,47.470126],[51.879242,47.397366],[51.894642,47.360262],[51.892058,47.331323],[51.871594,47.310498],[51.876865,47.293444],[51.907871,47.280112],[51.926784,47.250139],[51.933606,47.203605],[51.88379,47.121207],[51.724213,46.943853]],[[59.426275,54.51998],[59.306799,54.402959],[59.194093,54.324643],[59.161743,54.277824],[59.172182,54.23638],[59.149806,54.174756],[59.094719,54.092952],[59.102264,54.012156],[59.172647,53.932367],[59.190424,53.863457],[59.155697,53.805398],[59.168513,53.746229],[59.228974,53.685948],[59.253572,53.640447],[59.242513,53.609803],[59.182104,53.573268],[59.072446,53.530893],[59.021338,53.464385],[59.02878,53.373797],[59.066917,53.307212],[59.135647,53.264708],[59.129652,53.217165],[59.048934,53.164559],[58.974003,53.070714],[58.905066,52.935581],[58.904136,52.810834],[58.971419,52.696525],[58.995655,52.620251],[58.985682,52.599735],[58.989919,52.569453],[59.01028,52.545837],[59.057925,52.526768],[59.082523,52.513229],[59.080353,52.469821],[59.062163,52.419953],[58.833753,52.195781]]]}},{"type":"Feature","properties":{"name":"Verkhniy Yenisey","source":"Natural Earth 1:50m","ne_id":null},"geometry":{"type":"MultiLineString","coordinates":[[[94.464756,51.73369],[94.070207,51.604163],[93.646357,51.566026],[92.769356,51.581115],[92.349692,51.701134],[92.151616,51.795753],[92.035241,51.904997],[92.068468,52.012019],[92.2513,52.116767],[92.376615,52.213816],[92.444415,52.303061],[92.43811,52.377604],[92.357598,52.437394],[92.31388,52.499948],[92.307007,52.565216],[92.172493,52.596583],[91.91039,52.593999],[91.768745,52.615703],[91.747558,52.661747],[91.671593,52.67725],[91.540852,52.662264],[91.439463,52.674408],[91.367426,52.713579],[91.378123,52.796726],[91.471657,52.923902],[91.500699,53.011648],[91.465249,53.059914],[91.454346,53.101514],[91.467885,53.136395],[91.537803,53.160373],[91.6641,53.173395],[91.78802,53.229568],[91.90946,53.328838],[91.954832,53.398059],[91.924136,53.437178],[91.847448,53.478597],[91.724769,53.522366],[91.63387,53.569676],[91.574648,53.620552],[91.558887,53.659671],[91.586482,53.687008],[91.578007,53.709332],[91.510931,53.735428]],[[92.998076,58.100097],[92.989187,58.048679],[93.028255,58.028887],[93.112539,58.023539],[93.176463,57.979614],[93.220181,57.896983],[93.305344,57.636741],[93.305085,57.515508],[93.262142,57.419054],[93.293252,57.332341],[93.398361,57.255394],[93.452828,57.182763],[93.456652,57.114395],[93.437636,57.062719],[93.395829,57.027682],[93.38291,56.993266],[93.456963,56.860871],[93.508949,56.822992],[93.579746,56.801701],[93.65695,56.725892],[93.740769,56.595564],[93.735085,56.480145],[93.64,56.379608],[93.54998,56.316976],[93.465024,56.292249],[93.417792,56.262148],[93.408283,56.226646],[93.344825,56.195097],[93.227519,56.16745],[93.161787,56.130889],[93.147627,56.085414],[92.934617,56.034926],[92.522653,55.979452],[92.299772,55.922788],[92.265976,55.864859],[92.301477,55.813131],[92.406381,55.767501],[92.470046,55.715773],[92.492577,55.657947],[92.479968,55.597537],[92.408448,55.503124]]]}},{"type":"Feature","properties":{"name":"Volga","source":"Natural Earth 1:50m","ne_id":null},"geometry":{"type":"MultiLineString","coordinates":[[[47.841556,46.734925],[48.113942,46.683249],[48.21993,46.605243],[48.250316,46.483649],[48.313878,46.400579],[48.410616,46.355982],[48.500947,46.272111],[48.683675,46.08618]],[[45.663601,50.222309],[45.489968,50.122006],[45.414417,50.056066],[45.378967,49.991057],[45.360725,49.91623],[45.359588,49.831636],[45.305225,49.736964],[45.197634,49.632113],[45.106942,49.513154],[45.048444,49.407527],[45.010824,49.350631],[44.996355,49.313424],[44.990153,49.293581],[44.986949,49.259138],[44.975684,49.194749],[44.841842,49.012616],[44.587904,48.727465],[44.544341,48.665066],[44.527598,48.598016],[44.595501,48.545151],[44.864528,48.465673],[45.042502,48.434408],[45.129421,48.45141],[45.22771,48.446501],[45.337367,48.419784],[45.411058,48.424486],[45.448782,48.460712],[45.558594,48.451332],[45.733209,48.398597],[45.797959,48.383249],[45.831342,48.368934],[45.864932,48.352656],[45.90865,48.321676],[46.077684,48.218401],[46.155405,48.110087],[46.14662,47.993815],[46.193181,47.917592],[46.295087,47.88147],[46.350484,47.842972],[46.359476,47.802095],[46.408568,47.773002],[46.497865,47.755587],[46.616411,47.672904],[46.764205,47.524955],[46.87469,47.444417],[46.947967,47.431369],[47.008532,47.402843],[47.056591,47.358918],[47.081705,47.315614],[47.085116,47.25169],[47.086201,47.214018],[47.21224,47.143944],[47.463491,47.028913],[47.584982,46.9422],[47.576611,46.883754],[47.611699,46.854582],[47.69035,46.854608],[47.800318,46.772753],[47.941705,46.608938],[48.002063,46.505895],[47.981392,46.463572],[47.980152,46.418278],[47.998239,46.369935],[47.916435,46.249684],[47.734637,46.057396],[47.641103,45.929471],[47.635832,45.865857],[47.610355,45.834154],[47.578109,45.813483],[47.560746,45.789505],[47.563226,45.760566],[47.587204,45.737415],[47.631026,45.693594],[47.649836,45.656748]],[[49.904789,53.456737],[50.042145,53.45467],[50.108084,53.404725],[50.148495,53.30623],[50.128548,53.235588],[50.048346,53.192774],[49.957344,53.185229],[49.855541,53.212902],[49.717358,53.203058],[49.542795,53.155774],[49.427609,53.152467],[49.371695,53.193188],[49.269014,53.218974],[49.119462,53.229749],[48.918751,53.208535],[48.66688,53.155309],[48.524305,53.104847],[48.491025,53.057149],[48.503376,52.995138],[48.561357,52.918812],[48.504926,52.816363],[48.334084,52.68774],[48.177452,52.506098],[48.034929,52.271383],[47.900828,52.124803],[47.775048,52.066305],[47.643635,52.043025],[47.506589,52.054911],[47.272701,51.980962],[47.114262,51.918795],[46.970808,51.83017],[46.842547,51.772964],[46.774644,51.747927]],[[43.432419,56.674991],[43.656901,56.496397],[43.836839,56.403534],[44.046955,56.336923],[44.16731,56.27362],[44.197799,56.213623],[44.258105,56.179672],[44.348332,56.171662],[44.450858,56.140372],[44.565787,56.08575],[44.77611,56.082469],[45.081827,56.130605],[45.280885,56.137039],[45.373283,56.101847],[45.442839,56.103914],[45.489451,56.143292],[45.560144,56.15957],[45.654919,56.152749],[45.736775,56.166494],[45.805711,56.200833],[45.87227,56.198844],[45.936349,56.1605],[46.025026,56.171559],[46.1383,56.231917],[46.294053,56.286823],[46.492181,56.336277],[46.679714,56.308915],[46.856551,56.204683],[47.165938,56.150785],[47.828947,56.14541],[47.886101,56.121769],[47.92739,56.073348],[47.971935,55.992267],[48.066917,55.925321],[48.212334,55.872456],[48.459709,55.825275],[48.809042,55.78383],[49.002518,55.692983],[49.058949,55.48266]],[[37.148255,56.752402],[37.391961,56.861646],[37.477434,56.934768],[37.485805,57.008149],[37.557739,57.106334],[37.760931,57.290819]],[[32.598248,57.250356],[32.680827,57.079049],[32.675246,57.00944],[32.692041,56.972492],[32.729351,56.944897],[32.850843,56.9319],[33.056515,56.933476],[33.282393,56.899266],[33.528476,56.829245],[33.674927,56.765269],[33.721746,56.707443],[33.815538,56.640677],[33.956408,56.565101],[33.979663,56.50929],[33.885508,56.473272],[33.844477,56.444514],[33.856776,56.423016],[34.049839,56.35656],[34.42377,56.245146],[34.668406,56.208662],[34.783748,56.247006],[34.861831,56.289794],[34.902655,56.336975],[34.908857,56.368911],[34.880435,56.385499],[34.890977,56.415678],[34.940483,56.459345],[34.955779,56.50265],[34.936865,56.545541],[35.001202,56.578459],[35.222584,56.612927],[35.333895,56.703258],[35.421797,56.742273],[35.523393,56.76005],[35.606799,56.791107],[35.672014,56.835446],[35.772525,56.860664],[35.908331,56.866762],[36.065737,56.84622],[36.244847,56.799014],[36.344376,56.758138],[36.374555,56.706358]],[[41.343658,57.49308],[41.715315,57.447553],[41.889206,57.451222],[41.989148,57.488946],[42.173271,57.484709],[42.575831,57.415462]],[[40.007098,57.566667],[39.853309,57.668832],[39.798119,57.725211],[39.790367,57.769885],[39.696626,57.831302],[39.517102,57.909437],[39.246473,57.989691],[38.704026,58.113146]],[[38.300949,57.571628],[38.445592,57.760919],[38.479646,57.872437],[38.437065,58.017544]]]}},{"type":"Feature","properties":{"name":"Yenisey","source":"Natural Earth 1:50m","ne_id":null},"geometry":{"type":"MultiLineString","coordinates":[[[83.109584,70.109545],[83.306574,70.048748],[83.464187,69.976142],[83.550901,69.891445],[83.790576,69.789539],[84.183317,69.670425],[84.487174,69.646964],[84.702045,69.719259],[84.905753,69.766181],[85.0983,69.78773],[85.413061,69.721326],[85.850088,69.566968],[85.953183,69.489506],[85.96295,69.382174],[85.992199,69.294324],[86.024806,69.187147],[86.050748,69.118701],[86.011732,69.030877],[85.954785,68.933105],[85.991527,68.840656],[86.1926,68.739861],[86.24779,68.700355],[86.286651,68.665835],[86.329801,68.599017],[86.3529,68.528789],[86.344528,68.456003],[86.401373,68.380529],[86.523639,68.302446],[86.535628,68.213692],[86.437339,68.114318],[86.436409,68.015642],[86.480127,67.928205],[86.450827,67.840407],[86.347422,67.748475],[86.286134,67.659953],[86.288201,67.573137],[86.353417,67.487974],[86.446693,67.436763],[86.567926,67.419554],[86.618207,67.35899],[86.59764,67.255172],[86.61769,67.184194],[86.678565,67.146109],[86.698409,67.093088],[86.677428,67.025108],[86.688073,66.942426],[86.730345,66.845016],[86.630299,66.746624],[86.387937,66.647302],[86.286341,66.584567],[86.325718,66.558315],[86.477337,66.563818],[86.741455,66.601077],[87.032445,66.556816],[87.350359,66.431036],[87.458156,66.387111],[87.505284,66.348457],[87.513656,66.31957],[87.479395,66.289055],[87.454435,66.273319],[87.315735,66.224899],[87.274963,66.189965],[87.311601,66.163094],[87.473865,66.134827],[87.761755,66.105113],[87.913942,66.061653],[87.930478,66.004473],[87.895752,65.962434],[87.809865,65.935614],[87.765475,65.909595],[87.762685,65.884403],[87.771728,65.85381],[87.792605,65.817817],[87.849915,65.790765],[87.943656,65.772678],[88.003394,65.740484],[88.029128,65.694182],[87.980191,65.4574],[87.847641,64.999392],[87.822423,64.877539],[87.794776,64.816638],[87.767697,64.786692],[87.700208,64.737392],[87.630858,64.679334],[87.564092,64.594507],[87.540011,64.516321],[87.544455,64.442475],[87.577425,64.372919],[87.579285,64.271219],[87.550036,64.137326],[87.557581,64.038572],[87.602023,63.974855],[87.551173,63.885506],[87.404929,63.770475],[87.347051,63.677767],[87.377437,63.607306],[87.359505,63.527596],[87.293256,63.438609],[87.265713,63.38192],[87.27703,63.357477],[87.441774,63.299186],[87.759998,63.206995],[88.024323,63.092532],[88.339859,62.887531],[88.434117,62.85389],[88.48047,62.80304],[88.510339,62.723769],[88.595347,62.634575],[88.735597,62.535408],[88.857295,62.471536],[88.960544,62.442856],[89.013564,62.388027],[89.016355,62.30705],[89.082553,62.179073],[89.21226,62.004174],[89.325225,61.894207],[89.469816,61.826717],[89.705615,61.750831],[89.785662,61.688173],[89.788659,61.613397],[89.843436,61.585957],[89.9502,61.605749],[90.052312,61.601408],[90.149878,61.572831],[90.1737,61.536994],[90.123781,61.49387],[90.001256,61.449945],[89.806023,61.40527],[89.684583,61.336515],[89.636731,61.243756],[89.658951,61.109991],[89.751142,60.935247],[89.847054,60.815461],[89.946582,60.750582],[90.005907,60.65697],[90.024924,60.534548],[90.055826,60.459152],[90.120009,60.416519],[90.166207,60.381121],[90.171943,60.307017],[90.308834,60.238442],[90.494766,60.11491],[90.698475,59.927195],[90.783017,59.781907],[90.804205,59.745397],[90.858155,59.70664],[90.884096,59.657134],[90.881926,59.596879],[90.989516,59.498177],[91.206661,59.360925],[91.32531,59.267235],[91.345463,59.217006],[91.430936,59.163314],[91.581935,59.10616],[91.678053,59.050763],[91.719291,58.997123],[91.732623,58.953146],[91.717844,58.918781],[91.76859,58.900514],[91.884655,58.898292],[91.976691,58.876355],[92.044594,58.834704],[92.046351,58.794758],[91.981962,58.756621],[91.982324,58.72732],[92.04754,58.706805],[92.083713,58.649392],[92.090948,58.555031],[92.139007,58.498471],[92.22789,58.479712],[92.275484,58.450748],[92.281789,58.411577],[92.319823,58.380209],[92.389586,58.356645],[92.428136,58.325639],[92.435474,58.287192],[92.472578,58.244921],[92.539447,58.198877],[92.679181,58.15689],[92.998076,58.100097]]]}}]}
